{"type":"FeatureCollection","features":[{"type":"Feature","id":"21019","properties":{"fips":"21019","name":"Boyd","state":"KY"},"geometry":{"type":"Polygon","coordinates":[[[-82.6655,38.5057],[-82.5937,38.4218],[-82.5963,38.4177],[-82.5971,38.4129],[-82.5954,38.3827],[-82.5954,38.3827],[-82.593,38.3751],[-82.5719,38.3158],[-82.5747,38.2639],[-82.5783,38.2548],[-82.584,38.2464],[-82.595,38.2455],[-82.6042,38.2473],[-82.7942,38.2438],[-82.7717,38.3626],[-82.8175,38.3739],[-82.6655,38.5057]]]}},{"type":"Feature","id":"21043","properties":{"fips":"21043","name":"Carter","state":"KY"},"geometry":{"type":"Polygon","coordinates":[[[-83.3413,38.3195],[-83.2307,38.3393],[-83.2372,38.4262],[-83.1664,38.504],[-83.0518,38.4654],[-82.9786,38.3989],[-82.8175,38.3739],[-82.7717,38.3626],[-82.7942,38.2438],[-82.9248,38.1751],[-83.0531,38.1895],[-83.1592,38.2645],[-83.2443,38.1924],[-83.3067,38.2252],[-83.3413,38.3195]]]}},{"type":"Feature","id":"21063","properties":{"fips":"21063","name":"Elliott","state":"KY"},"geometry":{"type":"Polygon","coordinates":[[[-82.9248,38.1751],[-82.8891,38.1116],[-83.0221,38.007],[-83.1944,38.0106],[-83.2633,38.1154],[-83.2443,38.1924],[-83.1592,38.2645],[-83.0531,38.1895],[-82.9248,38.1751]]]}},{"type":"Feature","id":"21071","properties":{"fips":"21071","name":"Floyd","state":"KY"},"geometry":{"type":"Polygon","coordinates":[[[-82.9255,37.4865],[-82.8787,37.5401],[-82.9408,37.7163],[-82.7633,37.7561],[-82.6407,37.7202],[-82.5636,37.6848],[-82.6231,37.5035],[-82.5847,37.4666],[-82.6724,37.3068],[-82.7108,37.2853],[-82.7523,37.308],[-82.7676,37.4278],[-82.9255,37.4865]]]}},{"type":"Feature","id":"21089","properties":{"fips":"21089","name":"Greenup","state":"KY"},"geometry":{"type":"Polygon","coordinates":[[[-83.0309,38.7256],[-83.0307,38.7257],[-83.0118,38.7301],[-82.9794,38.726],[-82.9687,38.7288],[-82.9431,38.7433],[-82.9237,38.7501],[-82.8942,38.7566],[-82.8892,38.7561],[-82.8795,38.7515],[-82.8755,38.7473],[-82.8745,38.7453],[-82.8713,38.7394],[-82.87,38.7305],[-82.8704,38.7221],[-82.8735,38.7101],[-82.8696,38.6782],[-82.8536,38.6109],[-82.8472,38.5952],[-82.8395,38.5862],[-82.8202,38.5727],[-82.816,38.5707],[-82.8001,38.5632],[-82.7898,38.56],[-82.731,38.5593],[-82.7248,38.5576],[-82.6966,38.5421],[-82.6905,38.5366],[-82.6655,38.5058],[-82.6655,38.5057],[-82.8175,38.3739],[-82.9786,38.3989],[-83.0518,38.4654],[-83.1664,38.504],[-83.071,38.5952],[-83.0309,38.7256]]]}},{"type":"Feature","id":"21115","properties":{"fips":"21115","name":"Johnson","state":"KY"},"geometry":{"type":"Polygon","coordinates":[[[-82.9408,37.7163],[-83.0046,37.8592],[-82.989,37.964],[-82.9479,38.0004],[-82.6124,37.8793],[-82.6709,37.8518],[-82.6407,37.7202],[-82.7633,37.7561],[-82.9408,37.7163]]]}},{"type":"Feature","id":"21119","properties":{"fips":"21119","name":"Knott","state":"KY"},"geometry":{"type":"Polygon","coordinates":[[[-82.7327,37.2715],[-82.8194,37.2687],[-82.9792,37.1724],[-83.0001,37.1957],[-83.1272,37.2684],[-83.1243,37.405],[-83.1347,37.4572],[-83.0623,37.5262],[-82.9485,37.5032],[-82.9442,37.5014],[-82.9454,37.4974],[-82.9417,37.4963],[-82.9413,37.4898],[-82.9344,37.494],[-82.9255,37.4865],[-82.7676,37.4278],[-82.7523,37.308],[-82.7108,37.2853],[-82.7189,37.2803],[-82.7246,37.281],[-82.7327,37.2715]]]}},{"type":"Feature","id":"21127","properties":{"fips":"21127","name":"Lawrence","state":"KY"},"geometry":{"type":"Polygon","coordinates":[[[-82.4973,37.9455],[-82.4974,37.9453],[-82.5821,37.9523],[-82.6124,37.8793],[-82.9479,38.0004],[-82.989,37.964],[-83.0161,37.9742],[-83.0221,38.007],[-82.8891,38.1116],[-82.9248,38.1751],[-82.7942,38.2438],[-82.6042,38.2473],[-82.6447,38.1655],[-82.6365,38.1379],[-82.6212,38.1232],[-82.6026,38.1183],[-82.6001,38.1174],[-82.5473,38.0611],[-82.5391,38.0391],[-82.5197,38.0085],[-82.5098,38.0012],[-82.4877,37.9983],[-82.4655,37.9848],[-82.4641,37.9824],[-82.465,37.9769],[-82.4973,37.9455]]]}},{"type":"Feature","id":"21135","properties":{"fips":"21135","name":"Lewis","state":"KY"},"geometry":{"type":"Polygon","coordinates":[[[-83.643,38.6433],[-83.6362,38.6706],[-83.6269,38.6794],[-83.6157,38.6841],[-83.5748,38.6927],[-83.5333,38.7021],[-83.521,38.703],[-83.5126,38.7017],[-83.3691,38.6593],[-83.3333,38.6416],[-83.3242,38.6333],[-83.3205,38.6227],[-83.2821,38.603],[-83.2658,38.6053],[-83.1569,38.6205],[-83.1428,38.6251],[-83.135,38.6317],[-83.1277,38.6425],[-83.0309,38.7256],[-83.071,38.5952],[-83.1664,38.504],[-83.2372,38.4262],[-83.2307,38.3393],[-83.3413,38.3195],[-83.4528,38.3818],[-83.58,38.4299],[-83.6419,38.5254],[-83.6467,38.6375],[-83.643,38.6433]]]}},{"type":"Feature","id":"21153","properties":{"fips":"21153","name":"Magoffin","state":"KY"},"geometry":{"type":"Polygon","coordinates":[[[-82.9255,37.4865],[-82.9344,37.494],[-82.9413,37.4898],[-82.9417,37.4963],[-82.9454,37.4974],[-82.9442,37.5014],[-82.9485,37.5032],[-83.0898,37.6322],[-83.1349,37.6068],[-83.2487,37.6696],[-83.2585,37.6799],[-83.2436,37.6992],[-83.2622,37.7127],[-83.2697,37.766],[-83.1133,37.8641],[-83.0046,37.8592],[-82.9408,37.7163],[-82.8787,37.5401],[-82.9255,37.4865]]]}},{"type":"Feature","id":"21159","properties":{"fips":"21159","name":"Martin","state":"KY"},"geometry":{"type":"Polygon","coordinates":[[[-82.4974,37.9453],[-82.5004,37.9365],[-82.4747,37.9104],[-82.4177,37.8707],[-82.4002,37.8518],[-82.3299,37.7759],[-82.319,37.7589],[-82.3264,37.7408],[-82.4561,37.6688],[-82.5636,37.6848],[-82.6407,37.7202],[-82.6709,37.8518],[-82.6124,37.8793],[-82.5821,37.9523],[-82.4974,37.9453]]]}},{"type":"Feature","id":"21175","properties":{"fips":"21175","name":"Morgan","state":"KY"},"geometry":{"type":"Polygon","coordinates":[[[-83.0221,38.007],[-83.0161,37.9742],[-82.989,37.964],[-83.0046,37.8592],[-83.1133,37.8641],[-83.2697,37.766],[-83.2622,37.7127],[-83.4951,37.8619],[-83.4339,38.034],[-83.2633,38.1154],[-83.1944,38.0106],[-83.0221,38.007]]]}},{"type":"Feature","id":"21195","properties":{"fips":"21195","name":"Pike","state":"KY"},"geometry":{"type":"Polygon","coordinates":[[[-82.3264,37.7408],[-82.3257,37.7358],[-82.3072,37.7077],[-82.297,37.6873],[-82.2503,37.6578],[-82.2197,37.643],[-82.1418,37.5951],[-82.1256,37.579],[-82.1259,37.574],[-82.1166,37.5596],[-82.0485,37.5311],[-82.0083,37.5334],[-81.9998,37.5426],[-81.9982,37.5431],[-81.9683,37.5378],[-82.2919,37.3116],[-82.3059,37.3011],[-82.3108,37.2974],[-82.3509,37.2671],[-82.5108,37.2181],[-82.5535,37.2009],[-82.5653,37.1961],[-82.5654,37.1961],[-82.7327,37.2715],[-82.7246,37.281],[-82.7189,37.2803],[-82.7108,37.2853],[-82.6724,37.3068],[-82.5847,37.4666],[-82.6231,37.5035],[-82.5636,37.6848],[-82.4561,37.6688],[-82.3264,37.7408]]]}},{"type":"Feature","id":"21205","properties":{"fips":"21205","name":"Rowan","state":"KY"},"geometry":{"type":"Polygon","coordinates":[[[-83.4339,38.034],[-83.4988,38.0506],[-83.6352,38.1875],[-83.5072,38.2694],[-83.4528,38.3818],[-83.3413,38.3195],[-83.3067,38.2252],[-83.2443,38.1924],[-83.2633,38.1154],[-83.4339,38.034]]]}},{"type":"Feature","id":"24001","properties":{"fips":"24001","name":"Allegany","state":"MD"},"geometry":{"type":"Polygon","coordinates":[[[-78.4686,39.5168],[-78.5659,39.5194],[-78.656,39.5347],[-78.6573,39.5351],[-78.6762,39.5406],[-78.6895,39.5458],[-78.7602,39.5822],[-78.7675,39.5875],[-78.772,39.5938],[-78.769,39.5999],[-78.7605,39.61],[-78.7875,39.6275],[-78.8248,39.5902],[-78.8747,39.5226],[-78.969,39.4415],[-79.0257,39.4655],[-79.0424,39.4793],[-79.0671,39.4747],[-79.0679,39.4792],[-78.9312,39.7228],[-78.8084,39.7227],[-78.3806,39.7226],[-78.3428,39.7225],[-78.334,39.6358],[-78.3552,39.6406],[-78.4303,39.6233],[-78.4572,39.5874],[-78.4585,39.5812],[-78.4544,39.5743],[-78.4502,39.5709],[-78.432,39.5611],[-78.4369,39.539],[-78.4686,39.5168]]]}},{"type":"Feature","id":"24013","properties":{"fips":"24013","name":"Carroll","state":"MD"},"geometry":{"type":"Polygon","coordinates":[[[-77.217,39.72],[-77.2168,39.72],[-77.0589,39.7201],[-77.0582,39.7202],[-77.0471,39.72],[-76.9995,39.7201],[-76.8976,39.7204],[-76.8901,39.7204],[-76.8092,39.7207],[-76.8064,39.7206],[-76.7871,39.7208],[-76.7871,39.7208],[-76.8667,39.5009],[-76.8684,39.4941],[-76.8798,39.3659],[-76.8807,39.3605],[-76.8734,39.3571],[-76.8797,39.3568],[-76.8823,39.3502],[-77.1681,39.354],[-77.1068,39.4917],[-77.2001,39.5786],[-77.2877,39.6045],[-77.217,39.72]]]}},{"type":"Feature","id":"24021","properties":{"fips":"24021","name":"Frederick","state":"MD"},"geometry":{"type":"Polygon","coordinates":[[[-77.4588,39.2203],[-77.4577,39.225],[-77.4602,39.2284],[-77.4846,39.2459],[-77.5112,39.2535],[-77.5345,39.2624],[-77.5432,39.2669],[-77.5458,39.2715],[-77.5609,39.2862],[-77.5927,39.3013],[-77.6677,39.3181],[-77.6775,39.3187],[-77.5702,39.62],[-77.4691,39.72],[-77.4594,39.72],[-77.2433,39.72],[-77.2398,39.72],[-77.217,39.72],[-77.2877,39.6045],[-77.2001,39.5786],[-77.1068,39.4917],[-77.1681,39.354],[-77.1686,39.3537],[-77.1688,39.3535],[-77.1715,39.3525],[-77.3138,39.2865],[-77.337,39.2757],[-77.4549,39.2216],[-77.4588,39.2203]]]}},{"type":"Feature","id":"24023","properties":{"fips":"24023","name":"Garrett","state":"MD"},"geometry":{"type":"Polygon","coordinates":[[[-79.0671,39.4747],[-79.0845,39.4714],[-79.2017,39.3797],[-79.2132,39.3679],[-79.2569,39.3561],[-79.28,39.3401],[-79.3787,39.2719],[-79.4029,39.2501],[-79.4869,39.206],[-79.4859,39.2649],[-79.4862,39.265],[-79.4867,39.2781],[-79.4877,39.2799],[-79.4826,39.5214],[-79.4824,39.5247],[-79.4789,39.5317],[-79.4767,39.7211],[-79.3925,39.7213],[-78.9312,39.7228],[-78.9312,39.7228],[-79.0679,39.4792],[-79.0671,39.4747]]]}},{"type":"Feature","id":"24031","properties":{"fips":"24031","name":"Montgomery","state":"MD"},"geometry":{"type":"Polygon","coordinates":[[[-77.1199,38.9343],[-77.1377,38.9553],[-77.1482,38.965],[-77.1669,38.9681],[-77.1975,38.9668],[-77.2215,38.9713],[-77.2354,38.9766],[-77.2498,38.9859],[-77.2557,39.0024],[-77.2518,39.0114],[-77.2614,39.031],[-77.2916,39.0454],[-77.328,39.0586],[-77.3403,39.063],[-77.3751,39.0613],[-77.4232,39.0669],[-77.4582,39.0737],[-77.5199,39.1209],[-77.5246,39.1278],[-77.5273,39.1462],[-77.5164,39.1709],[-77.5106,39.1785],[-77.5052,39.182],[-77.486,39.1857],[-77.4786,39.1892],[-77.4589,39.2198],[-77.4588,39.2203],[-77.4549,39.2216],[-77.337,39.2757],[-77.3138,39.2865],[-77.1715,39.3525],[-77.1688,39.3535],[-77.1868,39.3382],[-77.1447,39.2947],[-76.8885,39.131],[-76.9697,39.0213],[-76.9711,39.0193],[-76.9721,39.0181],[-76.9738,39.0157],[-76.9746,39.0147],[-76.9773,39.0109],[-76.9796,39.0082],[-76.9841,39.0014],[-76.9857,39.0],[-76.9883,38.9963],[-76.9891,38.9956],[-76.9911,38.9923],[-76.9857,38.9773],[-77.0026,38.9655],[-77.0083,38.9701],[-77.0138,38.9744],[-77.0156,38.9759],[-77.0363,38.9917],[-77.041,38.9951],[-77.0543,38.9851],[-77.1007,38.9489],[-77.1199,38.9343]]]}},{"type":"Feature","id":"24043","properties":{"fips":"24043","name":"Washington","state":"MD"},"geometry":{"type":"Polygon","coordinates":[[[-77.8254,39.494],[-77.8451,39.4983],[-77.8654,39.5165],[-77.8889,39.556],[-77.8861,39.5604],[-77.8845,39.5682],[-77.9026,39.5878],[-77.9464,39.5849],[-78.01,39.6029],[-78.0234,39.6199],[-78.036,39.6357],[-78.0746,39.6667],[-78.1078,39.6821],[-78.1435,39.6904],[-78.1766,39.696],[-78.1828,39.6951],[-78.1911,39.6903],[-78.2243,39.6633],[-78.2711,39.6196],[-78.283,39.6205],[-78.313,39.631],[-78.334,39.6358],[-78.3428,39.7225],[-78.3425,39.7225],[-78.3405,39.7225],[-78.3395,39.7226],[-78.3371,39.7225],[-78.3307,39.7227],[-78.269,39.7226],[-78.2689,39.7226],[-78.2431,39.7225],[-78.2403,39.7225],[-78.2044,39.7225],[-78.2029,39.7224],[-78.0991,39.7223],[-78.0758,39.7223],[-78.0737,39.7223],[-77.7685,39.7214],[-77.7432,39.7212],[-77.7326,39.7211],[-77.7241,39.7209],[-77.6745,39.7208],[-77.6722,39.7208],[-77.5348,39.7201],[-77.5334,39.7202],[-77.4691,39.72],[-77.5702,39.62],[-77.6775,39.3187],[-77.719,39.3211],[-77.7274,39.3217],[-77.7558,39.3339],[-77.7606,39.3389],[-77.7604,39.3442],[-77.7392,39.3857],[-77.7654,39.4286],[-77.8078,39.4902],[-77.8254,39.494]]]}},{"type":"Feature","id":"39009","properties":{"fips":"39009","name":"Athens","state":"OH"},"geometry":{"type":"Polygon","coordinates":[[[-82.0558,39.4601],[-81.8449,39.4502],[-81.8537,39.3182],[-81.7218,39.2696],[-81.7216,39.2124],[-81.7401,39.1907],[-81.7499,39.1865],[-81.7497,39.1807],[-82.2686,39.2038],[-82.264,39.2533],[-82.2638,39.2538],[-82.2636,39.2559],[-82.2637,39.2562],[-82.2602,39.2929],[-82.2985,39.295],[-82.2897,39.3842],[-82.2804,39.4729],[-82.1674,39.4663],[-82.1592,39.5566],[-82.0475,39.5508],[-82.0558,39.4601]]]}},{"type":"Feature","id":"39013","properties":{"fips":"39013","name":"Belmont","state":"OH"},"geometry":{"type":"Polygon","coordinates":[[[-80.7055,40.153],[-80.7265,40.0891],[-80.7331,40.0588],[-80.7309,40.0492],[-80.7315,40.0375],[-80.7321,40.0332],[-80.7401,39.9708],[-80.7432,39.9691],[-80.7595,39.9582],[-80.806,39.9171],[-80.8087,39.9126],[-80.8096,39.9056],[-80.8062,39.8973],[-80.8123,39.8488],[-81.2373,39.8678],[-81.2341,39.9513],[-81.2259,40.1701],[-81.0355,40.1649],[-80.8829,40.1595],[-80.7031,40.1572],[-80.7055,40.153]]]}},{"type":"Feature","id":"39019","properties":{"fips":"39019","name":"Carroll","state":"OH"},"geometry":{"type":"Polygon","coordinates":[[[-80.862,40.5994],[-80.9209,40.5563],[-80.9419,40.4247],[-81.27,40.4335],[-81.2647,40.565],[-81.3217,40.5666],[-81.3177,40.6516],[-81.2412,40.6505],[-81.2372,40.7235],[-81.0873,40.7278],[-80.9172,40.7269],[-80.9181,40.6435],[-80.862,40.5994]]]}},{"type":"Feature","id":"39029","properties":{"fips":"39029","name":"Columbiana","state":"OH"},"geometry":{"type":"Polygon","coordinates":[[[-80.5198,40.8999],[-80.519,40.8513],[-80.519,40.8501],[-80.5191,40.8492],[-80.519,40.8012],[-80.5191,40.7923],[-80.519,40.6388],[-80.5607,40.6237],[-80.589,40.6201],[-80.5941,40.6237],[-80.6015,40.6254],[-80.6272,40.6199],[-80.6344,40.6161],[-80.6659,40.5877],[-80.668,40.5825],[-80.862,40.5994],[-80.9181,40.6435],[-80.9172,40.7269],[-81.0873,40.7278],[-81.0867,40.9016],[-80.5198,40.8999]]]}},{"type":"Feature","id":"39053","properties":{"fips":"39053","name":"Gallia","state":"OH"},"geometry":{"type":"Polygon","coordinates":[[[-82.1393,38.8664],[-82.1844,38.8165],[-82.1912,38.8151],[-82.2158,38.7975],[-82.2216,38.7872],[-82.2204,38.7737],[-82.1989,38.7577],[-82.1883,38.7341],[-82.1825,38.7088],[-82.1721,38.626],[-82.1721,38.6193],[-82.1752,38.6085],[-82.1773,38.6038],[-82.182,38.5994],[-82.1938,38.5931],[-82.219,38.5917],[-82.246,38.5985],[-82.2621,38.5982],[-82.2743,38.5937],[-82.2871,38.5826],[-82.3617,38.5852],[-82.3545,38.6761],[-82.4725,38.6823],[-82.4836,38.7723],[-82.5827,38.7791],[-82.5756,38.8445],[-82.4552,38.8446],[-82.4353,39.0351],[-82.3229,39.0277],[-82.0955,39.0028],[-82.0988,38.9583],[-82.1393,38.8664]]]}},{"type":"Feature","id":"39059","properties":{"fips":"39059","name":"Guernsey","state":"OH"},"geometry":{"type":"Polygon","coordinates":[[[-81.6941,39.8426],[-81.7286,39.9317],[-81.7163,40.1522],[-81.6227,40.2213],[-81.3381,40.2143],[-81.3396,40.172],[-81.2259,40.1701],[-81.2341,39.9513],[-81.386,39.9507],[-81.4641,39.8946],[-81.5786,39.8977],[-81.5803,39.8391],[-81.6941,39.8426]]]}},{"type":"Feature","id":"39067","properties":{"fips":"39067","name":"Harrison","state":"OH"},"geometry":{"type":"Polygon","coordinates":[[[-81.0355,40.1649],[-81.2259,40.1701],[-81.3396,40.172],[-81.3381,40.2143],[-81.3346,40.3043],[-81.2753,40.3034],[-81.27,40.4335],[-80.9419,40.4247],[-80.8655,40.4229],[-80.8829,40.1595],[-81.0355,40.1649]]]}},{"type":"Feature","id":"39073","properties":{"fips":"39073","name":"Hocking","state":"OH"},"geometry":{"type":"Polygon","coordinates":[[[-82.3745,39.655],[-82.3799,39.5967],[-82.1592,39.5566],[-82.1674,39.4663],[-82.2804,39.4729],[-82.2897,39.3842],[-82.5145,39.3958],[-82.5176,39.3695],[-82.7486,39.3682],[-82.7408,39.466],[-82.7407,39.4684],[-82.7315,39.5544],[-82.6201,39.564],[-82.6175,39.6086],[-82.4961,39.6028],[-82.4903,39.6617],[-82.3745,39.655]]]}},{"type":"Feature","id":"39079","properties":{"fips":"39079","name":"Jackson","state":"OH"},"geometry":{"type":"Polygon","coordinates":[[[-82.7859,39.1688],[-82.7667,39.1678],[-82.7629,39.208],[-82.5363,39.1808],[-82.4247,39.138],[-82.4353,39.0351],[-82.4552,38.8446],[-82.5756,38.8445],[-82.625,38.8475],[-82.626,38.8476],[-82.65,38.8491],[-82.7607,38.8549],[-82.7534,38.9454],[-82.8071,38.9481],[-82.7859,39.1688]]]}},{"type":"Feature","id":"39081","properties":{"fips":"39081","name":"Jefferson","state":"OH"},"geometry":{"type":"Polygon","coordinates":[[[-80.6173,40.396],[-80.6192,40.3818],[-80.6093,40.3605],[-80.5999,40.3177],[-80.6029,40.3071],[-80.6167,40.2803],[-80.6372,40.2551],[-80.6446,40.2513],[-80.6521,40.245],[-80.6854,40.1876],[-80.7031,40.1572],[-80.8829,40.1595],[-80.8655,40.4229],[-80.9419,40.4247],[-80.9209,40.5563],[-80.862,40.5994],[-80.668,40.5825],[-80.6669,40.5737],[-80.6103,40.491],[-80.5992,40.4826],[-80.6123,40.4349],[-80.6173,40.396]]]}},{"type":"Feature","id":"39087","properties":{"fips":"39087","name":"Lawrence","state":"OH"},"geometry":{"type":"Polygon","coordinates":[[[-82.5067,38.4101],[-82.5202,38.4076],[-82.5607,38.4043],[-82.5937,38.4218],[-82.6655,38.5057],[-82.6655,38.5058],[-82.6905,38.5366],[-82.6966,38.5421],[-82.7248,38.5576],[-82.731,38.5593],[-82.7898,38.56],[-82.8001,38.5632],[-82.816,38.5707],[-82.7404,38.5972],[-82.7639,38.68],[-82.7068,38.6775],[-82.65,38.8491],[-82.626,38.8476],[-82.625,38.8475],[-82.5756,38.8445],[-82.5827,38.7791],[-82.4836,38.7723],[-82.4725,38.6823],[-82.3545,38.6761],[-82.3617,38.5852],[-82.2871,38.5826],[-82.2913,38.579],[-82.2939,38.5727],[-82.2933,38.5603],[-82.2956,38.5398],[-82.3139,38.4681],[-82.3202,38.4545],[-82.324,38.4493],[-82.3303,38.4445],[-82.3406,38.4409],[-82.5067,38.4101]]]}},{"type":"Feature","id":"39099","properties":{"fips":"39099","name":"Mahoning","state":"OH"},"geometry":{"type":"Polygon","coordinates":[[[-80.5192,41.1334],[-80.5192,41.1333],[-80.519,41.1251],[-80.519,41.1251],[-80.519,41.1251],[-80.5191,41.1251],[-80.519,41.116],[-80.5192,41.1054],[-80.5191,41.1008],[-80.5191,41.0907],[-80.5191,41.0821],[-80.519,41.075],[-80.519,41.0719],[-80.5189,41.071],[-80.519,41.0615],[-80.5189,41.0154],[-80.519,40.9954],[-80.519,40.9874],[-80.5191,40.9211],[-80.5198,40.9008],[-80.5198,40.8999],[-81.0867,40.9016],[-81.0867,40.9317],[-81.0866,40.9322],[-81.0866,40.9376],[-81.0869,40.9397],[-81.0866,40.9408],[-81.0866,40.9448],[-81.0867,40.9449],[-81.0869,40.9812],[-81.0868,40.9882],[-81.0017,40.9878],[-81.0023,41.1342],[-80.7895,41.1342],[-80.5192,41.1334]]]}},{"type":"Feature","id":"39105","properties":{"fips":"39105","name":"Meigs","state":"OH"},"geometry":{"type":"Polygon","coordinates":[[[-81.7497,39.1807],[-81.7473,39.0954],[-81.7473,39.0954],[-81.8124,39.0821],[-81.8142,39.0735],[-81.8117,39.0596],[-81.8034,39.0477],[-81.7933,39.0404],[-81.7729,39.0262],[-81.7643,39.0153],[-81.7561,38.9335],[-81.76,38.9258],[-81.8749,38.8812],[-81.9086,38.8785],[-81.927,38.8916],[-81.9284,38.8954],[-81.9267,38.9013],[-81.9009,38.9243],[-81.8985,38.9296],[-81.9006,38.9377],[-81.9198,38.9685],[-81.9356,38.9895],[-82.0023,39.0279],[-82.0176,39.0301],[-82.036,39.0255],[-82.0416,39.0179],[-82.0457,39.0038],[-82.0516,38.9944],[-82.0932,38.971],[-82.0988,38.9583],[-82.0955,39.0028],[-82.3229,39.0277],[-82.3067,39.2055],[-82.2686,39.2038],[-81.7497,39.1807]]]}},{"type":"Feature","id":"39111","properties":{"fips":"39111","name":"Monroe","state":"OH"},"geometry":{"type":"Polygon","coordinates":[[[-80.8123,39.8488],[-80.8286,39.7208],[-80.8298,39.7118],[-80.8319,39.7057],[-80.8804,39.6207],[-80.8922,39.6168],[-80.9438,39.6069],[-81.0201,39.5554],[-81.0387,39.5405],[-81.0368,39.5721],[-81.2468,39.579],[-81.2831,39.6058],[-81.3191,39.7074],[-81.3136,39.8695],[-81.2373,39.8678],[-80.8123,39.8488]]]}},{"type":"Feature","id":"39115","properties":{"fips":"39115","name":"Morgan","state":"OH"},"geometry":{"type":"Polygon","coordinates":[[[-81.8449,39.4502],[-82.0558,39.4601],[-82.0475,39.5508],[-82.0242,39.7247],[-82.0766,39.771],[-81.6974,39.7556],[-81.6399,39.7534],[-81.6432,39.6657],[-81.5861,39.664],[-81.5882,39.587],[-81.7144,39.5842],[-81.7085,39.4808],[-81.8232,39.4941],[-81.8449,39.4502]]]}},{"type":"Feature","id":"39121","properties":{"fips":"39121","name":"Noble","state":"OH"},"geometry":{"type":"Polygon","coordinates":[[[-81.5882,39.587],[-81.5861,39.664],[-81.6432,39.6657],[-81.6399,39.7534],[-81.6974,39.7556],[-81.6941,39.8426],[-81.5803,39.8391],[-81.5786,39.8977],[-81.4641,39.8946],[-81.386,39.9507],[-81.2341,39.9513],[-81.2373,39.8678],[-81.3136,39.8695],[-81.3191,39.7074],[-81.2831,39.6058],[-81.3949,39.6015],[-81.4732,39.646],[-81.4735,39.5833],[-81.5882,39.587]]]}},{"type":"Feature","id":"39145","properties":{"fips":"39145","name":"Scioto","state":"OH"},"geometry":{"type":"Polygon","coordinates":[[[-83.0436,38.9569],[-82.8071,38.9481],[-82.7534,38.9454],[-82.7607,38.8549],[-82.65,38.8491],[-82.7068,38.6775],[-82.7639,38.68],[-82.7404,38.5972],[-82.816,38.5707],[-82.8202,38.5727],[-82.8395,38.5862],[-82.8472,38.5952],[-82.8536,38.6109],[-82.8696,38.6782],[-82.8735,38.7101],[-82.8704,38.7221],[-82.87,38.7305],[-82.8713,38.7394],[-82.8745,38.7453],[-82.8755,38.7473],[-82.8795,38.7515],[-82.8892,38.7561],[-82.8942,38.7566],[-82.9237,38.7501],[-82.9431,38.7433],[-82.9687,38.7288],[-82.9794,38.726],[-83.0118,38.7301],[-83.0307,38.7257],[-83.0309,38.7256],[-83.1277,38.6425],[-83.135,38.6317],[-83.1428,38.6251],[-83.1569,38.6205],[-83.2658,38.6053],[-83.2708,39.0158],[-83.2121,38.9601],[-83.0436,38.9569]]]}},{"type":"Feature","id":"39151","properties":{"fips":"39151","name":"Stark","state":"OH"},"geometry":{"type":"Polygon","coordinates":[[[-81.4676,40.908],[-81.4204,40.9065],[-81.3934,40.9885],[-81.0868,40.9882],[-81.0869,40.9812],[-81.0867,40.9449],[-81.0866,40.9448],[-81.0866,40.9408],[-81.0869,40.9397],[-81.0866,40.9376],[-81.0866,40.9322],[-81.0867,40.9317],[-81.0867,40.9016],[-81.0873,40.7278],[-81.2372,40.7235],[-81.2412,40.6505],[-81.3177,40.6516],[-81.6492,40.6351],[-81.65,40.6553],[-81.65,40.6681],[-81.6477,40.9144],[-81.6459,40.9143],[-81.4676,40.908]]]}},{"type":"Feature","id":"39157","properties":{"fips":"39157","name":"Tuscarawas","state":"OH"},"geometry":{"type":"Polygon","coordinates":[[[-81.6492,40.6351],[-81.3177,40.6516],[-81.3217,40.5666],[-81.2647,40.565],[-81.27,40.4335],[-81.2753,40.3034],[-81.3346,40.3043],[-81.3381,40.2143],[-81.6227,40.2213],[-81.616,40.3681],[-81.7123,40.3708],[-81.7091,40.4448],[-81.6697,40.4439],[-81.6492,40.6351]]]}},{"type":"Feature","id":"39163","properties":{"fips":"39163","name":"Vinton","state":"OH"},"geometry":{"type":"Polygon","coordinates":[[[-82.2897,39.3842],[-82.2985,39.295],[-82.2602,39.2929],[-82.2637,39.2562],[-82.2636,39.2559],[-82.2638,39.2538],[-82.264,39.2533],[-82.2686,39.2038],[-82.3067,39.2055],[-82.3229,39.0277],[-82.4353,39.0351],[-82.4247,39.138],[-82.5363,39.1808],[-82.7629,39.208],[-82.7486,39.3682],[-82.5176,39.3695],[-82.5145,39.3958],[-82.2897,39.3842]]]}},{"type":"Feature","id":"39167","properties":{"fips":"39167","name":"Washington","state":"OH"},"geometry":{"type":"Polygon","coordinates":[[[-81.3713,39.3421],[-81.376,39.3417],[-81.3846,39.3434],[-81.3938,39.3517],[-81.4067,39.3881],[-81.4127,39.3946],[-81.4356,39.4085],[-81.4465,39.4104],[-81.4561,39.4093],[-81.4677,39.4038],[-81.5423,39.3529],[-81.6058,39.2759],[-81.6957,39.2429],[-81.7216,39.2124],[-81.7218,39.2696],[-81.8537,39.3182],[-81.8449,39.4502],[-81.8232,39.4941],[-81.7085,39.4808],[-81.7144,39.5842],[-81.5882,39.587],[-81.4735,39.5833],[-81.4732,39.646],[-81.3949,39.6015],[-81.2831,39.6058],[-81.2468,39.579],[-81.0368,39.5721],[-81.0387,39.5405],[-81.0636,39.5205],[-81.1277,39.4649],[-81.2156,39.3886],[-81.2236,39.3861],[-81.2491,39.39],[-81.2707,39.3859],[-81.2954,39.3753],[-81.3476,39.3458],[-81.3569,39.3432],[-81.3713,39.3421]]]}},{"type":"Feature","id":"42001","properties":{"fips":"42001","name":"Adams","state":"PA"},"geometry":{"type":"Polygon","coordinates":[[[-77.2552,40.0208],[-77.1374,40.0699],[-77.0186,40.0139],[-76.9549,39.8569],[-76.9984,39.8321],[-76.9995,39.7201],[-77.0471,39.72],[-77.0582,39.7202],[-77.0589,39.7201],[-77.2168,39.72],[-77.217,39.72],[-77.2398,39.72],[-77.2433,39.72],[-77.4594,39.72],[-77.4711,39.9441],[-77.4038,39.9944],[-77.2552,40.0208]]]}},{"type":"Feature","id":"42003","properties":{"fips":"42003","name":"Allegheny","state":"PA"},"geometry":{"type":"Polygon","coordinates":[[[-79.7016,40.5254],[-79.702,40.5238],[-79.7021,40.4896],[-79.7038,40.4435],[-79.7047,40.4272],[-79.7222,40.4091],[-79.7837,40.3159],[-79.7879,40.2977],[-79.7751,40.2879],[-79.7818,40.2277],[-79.8706,40.1974],[-79.8819,40.1965],[-79.889,40.1948],[-79.8933,40.1944],[-79.9126,40.1978],[-79.9279,40.2068],[-79.9561,40.2136],[-79.9683,40.2238],[-79.9707,40.2318],[-79.9648,40.2377],[-79.9521,40.2409],[-80.0337,40.288],[-80.1831,40.3325],[-80.3609,40.4775],[-80.3608,40.4776],[-80.2286,40.5731],[-80.1449,40.6135],[-80.1485,40.6743],[-79.6929,40.6697],[-79.6926,40.6697],[-79.7654,40.5499],[-79.7016,40.5254]]]}},{"type":"Feature","id":"42007","properties":{"fips":"42007","name":"Beaver","state":"PA"},"geometry":{"type":"Polygon","coordinates":[[[-80.5191,40.5179],[-80.5191,40.5179],[-80.5191,40.5902],[-80.5191,40.5902],[-80.5191,40.6164],[-80.519,40.6164],[-80.519,40.6388],[-80.5191,40.7923],[-80.519,40.8012],[-80.5191,40.8492],[-80.519,40.8501],[-80.519,40.8513],[-80.1585,40.8552],[-80.1488,40.6764],[-80.1485,40.6743],[-80.1449,40.6135],[-80.2286,40.5731],[-80.3608,40.4776],[-80.3609,40.4775],[-80.4481,40.4777],[-80.5187,40.4774],[-80.5191,40.5179]]]}},{"type":"Feature","id":"42009","properties":{"fips":"42009","name":"Bedford","state":"PA"},"geometry":{"type":"Polygon","coordinates":[[[-78.6204,40.327],[-78.4479,40.2444],[-78.4343,40.3023],[-78.2888,40.2421],[-78.2573,40.2979],[-78.2363,40.2246],[-78.1349,40.1651],[-78.299,39.8255],[-78.3806,39.7226],[-78.8084,39.7227],[-78.7572,39.8235],[-78.7632,40.057],[-78.6584,40.2429],[-78.6204,40.327]]]}},{"type":"Feature","id":"42019","properties":{"fips":"42019","name":"Butler","state":"PA"},"geometry":{"type":"Polygon","coordinates":[[[-80.16,40.8869],[-80.1653,41.0005],[-80.0969,41.0698],[-79.9998,41.1719],[-79.695,41.1729],[-79.6924,41.172],[-79.6907,41.1707],[-79.69,40.7414],[-79.6923,40.7167],[-79.6926,40.6888],[-79.6928,40.6746],[-79.6924,40.6729],[-79.6929,40.6697],[-80.1485,40.6743],[-80.1488,40.6764],[-80.1585,40.8552],[-80.16,40.8869]]]}},{"type":"Feature","id":"42051","properties":{"fips":"42051","name":"Fayette","state":"PA"},"geometry":{"type":"Polygon","coordinates":[[[-79.4767,39.7211],[-79.6082,39.7212],[-79.6106,39.7212],[-79.7638,39.7208],[-79.8529,39.7207],[-79.8531,39.7207],[-79.9163,39.7208],[-79.9153,39.8803],[-79.998,39.9833],[-79.877,40.0368],[-79.8774,40.1268],[-79.7222,40.1211],[-79.6411,40.0883],[-79.5926,40.092],[-79.579,40.1055],[-79.5403,40.114],[-79.5052,40.1406],[-79.4794,40.1428],[-79.457,40.1351],[-79.2937,40.0404],[-79.2943,40.0394],[-79.2961,40.0367],[-79.3015,40.0299],[-79.3028,40.0285],[-79.3252,39.9999],[-79.3304,39.9928],[-79.3474,39.9695],[-79.4176,39.8538],[-79.3657,39.8205],[-79.3925,39.7213],[-79.4767,39.7211]]]}},{"type":"Feature","id":"42055","properties":{"fips":"42055","name":"Franklin","state":"PA"},"geometry":{"type":"Polygon","coordinates":[[[-77.703,40.2636],[-77.6852,40.2763],[-77.6718,40.2898],[-77.6147,40.1985],[-77.4711,39.9441],[-77.4594,39.72],[-77.4691,39.72],[-77.5334,39.7202],[-77.5348,39.7201],[-77.6722,39.7208],[-77.6745,39.7208],[-77.7241,39.7209],[-77.7326,39.7211],[-77.7432,39.7212],[-77.7685,39.7214],[-78.0737,39.7223],[-78.0758,39.7223],[-78.0991,39.7223],[-78.0027,39.8266],[-77.921,40.0005],[-77.8645,40.0616],[-77.703,40.2636]]]}},{"type":"Feature","id":"42057","properties":{"fips":"42057","name":"Fulton","state":"PA"},"geometry":{"type":"Polygon","coordinates":[[[-78.3425,39.7225],[-78.3428,39.7225],[-78.3806,39.7226],[-78.299,39.8255],[-78.1349,40.1651],[-77.9259,40.1019],[-77.8645,40.0616],[-77.921,40.0005],[-78.0027,39.8266],[-78.0991,39.7223],[-78.2029,39.7224],[-78.2044,39.7225],[-78.2403,39.7225],[-78.2431,39.7225],[-78.2689,39.7226],[-78.269,39.7226],[-78.3307,39.7227],[-78.3371,39.7225],[-78.3395,39.7226],[-78.3405,39.7225],[-78.3425,39.7225]]]}},{"type":"Feature","id":"42059","properties":{"fips":"42059","name":"Greene","state":"PA"},"geometry":{"type":"Polygon","coordinates":[[[-79.9163,39.7208],[-80.3087,39.7213],[-80.3095,39.7213],[-80.4214,39.7212],[-80.5193,39.7214],[-80.5192,39.937],[-80.5191,39.9392],[-80.5192,39.9566],[-80.5192,39.9594],[-80.5192,39.9622],[-80.3795,39.9941],[-80.1573,39.9996],[-79.998,39.9833],[-79.9153,39.8803],[-79.9163,39.7208]]]}},{"type":"Feature","id":"42073","properties":{"fips":"42073","name":"Lawrence","state":"PA"},"geometry":{"type":"Polygon","coordinates":[[[-80.0969,41.0698],[-80.1653,41.0005],[-80.16,40.8869],[-80.1585,40.8552],[-80.519,40.8513],[-80.5198,40.8999],[-80.5198,40.9008],[-80.5191,40.9211],[-80.519,40.9874],[-80.519,40.9954],[-80.5189,41.0154],[-80.519,41.0615],[-80.5189,41.071],[-80.519,41.0719],[-80.519,41.075],[-80.5191,41.0821],[-80.5191,41.0907],[-80.5191,41.1008],[-80.5192,41.1054],[-80.519,41.116],[-80.5191,41.1251],[-80.519,41.1251],[-80.519,41.1251],[-80.3851,41.1265],[-80.1472,41.1138],[-80.0969,41.0698]]]}},{"type":"Feature","id":"42111","properties":{"fips":"42111","name":"Somerset","state":"PA"},"geometry":{"type":"Polygon","coordinates":[[[-78.7686,40.2434],[-78.7603,40.2432],[-78.6584,40.2429],[-78.7632,40.057],[-78.7572,39.8235],[-78.8084,39.7227],[-78.9312,39.7228],[-78.9312,39.7228],[-79.3925,39.7213],[-79.3657,39.8205],[-79.4176,39.8538],[-79.3474,39.9695],[-79.3304,39.9928],[-79.3252,39.9999],[-79.3028,40.0285],[-79.3015,40.0299],[-79.2961,40.0367],[-79.2943,40.0394],[-79.2937,40.0404],[-79.1852,40.1098],[-79.0887,40.2413],[-79.0862,40.2427],[-79.0867,40.2453],[-79.0825,40.2501],[-79.0793,40.2512],[-79.0781,40.2548],[-79.0796,40.2579],[-79.0766,40.2603],[-79.0735,40.2667],[-79.068,40.2725],[-79.0594,40.2758],[-79.0566,40.2786],[-79.056,40.2851],[-78.9276,40.285],[-78.8849,40.2446],[-78.7686,40.2434]]]}},{"type":"Feature","id":"42125","properties":{"fips":"42125","name":"Washington","state":"PA"},"geometry":{"type":"Polygon","coordinates":[[[-80.5192,39.9622],[-80.5192,39.9624],[-80.5192,39.9634],[-80.5191,40.0164],[-80.519,40.077],[-80.519,40.0781],[-80.5191,40.1597],[-80.5191,40.1727],[-80.5191,40.1728],[-80.518,40.3989],[-80.518,40.3996],[-80.5187,40.4774],[-80.4481,40.4777],[-80.3609,40.4775],[-80.1831,40.3325],[-80.0337,40.288],[-79.9521,40.2409],[-79.9648,40.2377],[-79.9707,40.2318],[-79.9683,40.2238],[-79.9561,40.2136],[-79.9279,40.2068],[-79.9126,40.1978],[-79.8933,40.1944],[-79.889,40.1948],[-79.8819,40.1965],[-79.8706,40.1974],[-79.8774,40.1268],[-79.877,40.0368],[-79.998,39.9833],[-80.1573,39.9996],[-80.3795,39.9941],[-80.5192,39.9622]]]}},{"type":"Feature","id":"51005","properties":{"fips":"51005","name":"Alleghany","state":"VA"},"geometry":{"type":"Polygon","coordinates":[[[-80.221,37.6278],[-80.2393,37.6377],[-80.2544,37.6424],[-80.2545,37.6423],[-80.2633,37.6451],[-80.2633,37.6451],[-80.2648,37.6455],[-80.2649,37.6455],[-80.2672,37.646],[-80.2675,37.6461],[-80.2704,37.6489],[-80.2703,37.649],[-80.2923,37.6837],[-80.2923,37.684],[-80.2961,37.6918],[-80.2871,37.6964],[-80.2639,37.7191],[-80.2593,37.7312],[-80.2603,37.7335],[-80.2628,37.7383],[-80.2574,37.7561],[-80.2316,37.7926],[-80.2271,37.7989],[-80.1622,37.8751],[-80.149,37.8861],[-80.1473,37.8859],[-80.1461,37.8845],[-80.1305,37.8932],[-80.0553,37.9517],[-79.9354,37.9544],[-79.8814,37.892],[-79.6508,37.8716],[-79.674,37.7631],[-79.8167,37.801],[-79.9176,37.7018],[-80.0205,37.6475],[-80.1444,37.5966],[-80.221,37.6278]],[[-79.9836,37.8023],[-79.9845,37.812],[-79.9874,37.8136],[-79.9892,37.811],[-79.9991,37.8062],[-79.9921,37.7998],[-79.993,37.7971],[-80.0014,37.7898],[-79.9959,37.7822],[-80.0012,37.7688],[-80.0089,37.763],[-79.9926,37.7482],[-79.9665,37.7571],[-79.9773,37.7673],[-79.98,37.7811],[-79.9665,37.7925],[-79.9671,37.8034],[-79.9836,37.8023]]]}},{"type":"Feature","id":"51013","properties":{"fips":"51013","name":"Arlington","state":"VA"},"geometry":{"type":"Polygon","coordinates":[[[-77.033,38.8395],[-77.0546,38.841],[-77.0639,38.845],[-77.0856,38.8442],[-77.0879,38.8274],[-77.088,38.825],[-77.1107,38.8435],[-77.1503,38.8762],[-77.1722,38.8933],[-77.1681,38.8965],[-77.1575,38.9049],[-77.1544,38.907],[-77.1497,38.9105],[-77.1485,38.912],[-77.1199,38.9343],[-77.1012,38.9111],[-77.0902,38.9042],[-77.0682,38.8998],[-77.0406,38.8712],[-77.0317,38.8505],[-77.033,38.8395]]]}},{"type":"Feature","id":"51015","properties":{"fips":"51015","name":"Augusta","state":"VA"},"geometry":{"type":"Polygon","coordinates":[[[-79.5122,38.1804],[-79.4381,38.2162],[-79.3123,38.4119],[-79.2978,38.4164],[-79.2957,38.4181],[-79.2918,38.4196],[-79.2905,38.4208],[-79.2803,38.4255],[-79.2827,38.431],[-79.2674,38.4383],[-79.2653,38.4418],[-79.2634,38.4438],[-79.2629,38.4446],[-79.242,38.4643],[-79.2401,38.4698],[-79.2344,38.473],[-79.2316,38.474],[-79.2258,38.4794],[-78.7494,38.2066],[-78.7792,38.0835],[-78.8392,38.0476],[-78.9073,37.946],[-79.0051,37.8817],[-79.0625,37.9176],[-79.1574,37.891],[-79.184,37.9142],[-79.4824,38.0861],[-79.4369,38.1632],[-79.5122,38.1804]],[[-78.9496,38.0572],[-78.8722,38.0396],[-78.8558,38.0744],[-78.9035,38.1],[-78.9496,38.0572]],[[-79.0917,38.1321],[-79.0498,38.1211],[-79.023,38.1958],[-79.0971,38.1848],[-79.0917,38.1321]]]}},{"type":"Feature","id":"51017","properties":{"fips":"51017","name":"Bath","state":"VA"},"geometry":{"type":"Polygon","coordinates":[[[-80.0553,37.9517],[-80.0025,37.9928],[-79.9784,38.0291],[-79.9598,38.0637],[-79.9339,38.0992],[-79.931,38.1014],[-79.9384,38.1306],[-79.9338,38.1355],[-79.9287,38.1444],[-79.9287,38.1449],[-79.9255,38.1502],[-79.9253,38.1505],[-79.921,38.18],[-79.9212,38.1804],[-79.9171,38.1837],[-79.9162,38.1844],[-79.8923,38.2024],[-79.892,38.2034],[-79.7946,38.2649],[-79.7062,38.2212],[-79.5122,38.1804],[-79.4369,38.1632],[-79.4824,38.0861],[-79.6508,37.8716],[-79.8814,37.892],[-79.9354,37.9544],[-80.0553,37.9517]]]}},{"type":"Feature","id":"51019","properties":{"fips":"51019","name":"Bedford","state":"VA"},"geometry":{"type":"Polygon","coordinates":[[[-79.6261,37.4553],[-79.4986,37.5329],[-79.4369,37.617],[-79.3493,37.5248],[-79.1833,37.4659],[-79.2687,37.431],[-79.2572,37.3556],[-79.3305,37.2384],[-79.4429,37.0559],[-79.4807,37.0059],[-79.5941,37.0422],[-79.7183,37.1898],[-79.8471,37.2255],[-79.8476,37.3092],[-79.8442,37.3178],[-79.8107,37.3353],[-79.7882,37.3511],[-79.7786,37.3818],[-79.8142,37.4037],[-79.7905,37.4088],[-79.7191,37.449],[-79.6901,37.4764],[-79.6591,37.4852],[-79.6342,37.4571],[-79.6282,37.4536],[-79.6261,37.4553]],[[-79.5436,37.3242],[-79.5036,37.3167],[-79.4872,37.3458],[-79.5356,37.3553],[-79.5436,37.3242]]]}},{"type":"Feature","id":"51021","properties":{"fips":"51021","name":"Bland","state":"VA"},"geometry":{"type":"Polygon","coordinates":[[[-81.2251,37.2349],[-81.2048,37.243],[-81.167,37.2629],[-81.1126,37.2785],[-81.084,37.2844],[-81.0347,37.2908],[-80.9813,37.2935],[-80.98,37.2931],[-81.0145,37.2754],[-80.8546,37.1475],[-80.9127,37.0733],[-81.1143,37.0226],[-81.2246,37.0478],[-81.3794,36.9524],[-81.4372,37.0101],[-81.4622,37.0355],[-81.2703,37.093],[-81.3281,37.139],[-81.2251,37.2349]]]}},{"type":"Feature","id":"51023","properties":{"fips":"51023","name":"Botetourt","state":"VA"},"geometry":{"type":"Polygon","coordinates":[[[-79.8476,37.3092],[-79.8651,37.3284],[-79.9456,37.363],[-80.0626,37.4083],[-80.074,37.4223],[-79.969,37.5444],[-80.0205,37.6475],[-79.9176,37.7018],[-79.8167,37.801],[-79.674,37.7631],[-79.6836,37.6617],[-79.4986,37.5329],[-79.6261,37.4553],[-79.6282,37.4536],[-79.6342,37.4571],[-79.6591,37.4852],[-79.6901,37.4764],[-79.7191,37.449],[-79.7905,37.4088],[-79.8142,37.4037],[-79.7786,37.3818],[-79.7882,37.3511],[-79.8107,37.3353],[-79.8442,37.3178],[-79.8476,37.3092]]]}},{"type":"Feature","id":"51027","properties":{"fips":"51027","name":"Buchanan","state":"VA"},"geometry":{"type":"Polygon","coordinates":[[[-81.9683,37.5378],[-81.9279,37.5121],[-81.9426,37.5088],[-81.9929,37.483],[-81.9966,37.4767],[-81.9923,37.4609],[-81.987,37.4549],[-81.9688,37.4515],[-81.9494,37.4457],[-81.9356,37.4384],[-81.9275,37.4133],[-81.9339,37.3727],[-81.9302,37.3667],[-81.9299,37.3666],[-81.9266,37.3589],[-81.9256,37.3573],[-81.9216,37.3564],[-81.9207,37.3554],[-81.9115,37.3488],[-81.9109,37.3487],[-81.9079,37.3438],[-81.9073,37.3431],[-81.9064,37.3428],[-81.9059,37.3428],[-81.9038,37.343],[-81.903,37.3423],[-81.8995,37.3411],[-81.8995,37.3403],[-81.896,37.332],[-81.8955,37.332],[-81.8948,37.332],[-81.8948,37.3314],[-81.8938,37.3301],[-81.8929,37.3301],[-81.8877,37.3312],[-81.887,37.3307],[-81.8851,37.3307],[-81.8809,37.3311],[-81.8796,37.3321],[-81.8787,37.3318],[-81.8783,37.3288],[-81.8732,37.3251],[-81.8652,37.3088],[-81.8648,37.3084],[-81.854,37.3004],[-81.8545,37.2999],[-81.8535,37.2948],[-81.8541,37.2914],[-81.8432,37.2856],[-81.8423,37.2856],[-81.8106,37.283],[-81.8092,37.283],[-81.7936,37.2822],[-81.7934,37.2817],[-81.7747,37.2748],[-81.7747,37.2748],[-81.7678,37.2742],[-81.7652,37.2751],[-81.7638,37.2752],[-81.7628,37.2754],[-81.7618,37.2757],[-81.7602,37.2753],[-81.7576,37.274],[-81.7577,37.2719],[-81.7577,37.2711],[-81.7575,37.27],[-81.755,37.2677],[-81.7529,37.2666],[-81.7521,37.2656],[-81.7513,37.2651],[-81.7477,37.2643],[-81.7435,37.2476],[-81.7434,37.2459],[-81.7443,37.2442],[-81.7384,37.2409],[-81.9011,37.1425],[-82.0177,37.0688],[-82.1487,37.0417],[-82.1359,37.0612],[-82.3059,37.3011],[-82.2919,37.3116],[-81.9683,37.5378]]]}},{"type":"Feature","id":"51035","properties":{"fips":"51035","name":"Carroll","state":"VA"},"geometry":{"type":"Polygon","coordinates":[[[-81.0424,36.8064],[-80.7405,36.879],[-80.634,36.9318],[-80.4642,36.7087],[-80.5255,36.6441],[-80.5781,36.6621],[-80.6122,36.5581],[-80.6875,36.5614],[-80.7441,36.5617],[-80.8371,36.5592],[-80.8376,36.5591],[-80.838,36.5591],[-80.9142,36.6502],[-80.8773,36.6922],[-80.9176,36.6941],[-80.9205,36.6781],[-80.9323,36.6716],[-81.0424,36.8064]]]}},{"type":"Feature","id":"51043","properties":{"fips":"51043","name":"Clarke","state":"VA"},"geometry":{"type":"Polygon","coordinates":[[[-78.0332,39.2646],[-78.0328,39.2644],[-77.8282,39.1323],[-77.962,39.0138],[-77.9651,39.0089],[-77.9904,38.9963],[-77.9898,38.9938],[-78.0042,38.9795],[-78.152,39.0363],[-78.0332,39.2646]]]}},{"type":"Feature","id":"51045","properties":{"fips":"51045","name":"Craig","state":"VA"},"geometry":{"type":"Polygon","coordinates":[[[-80.221,37.6278],[-80.1444,37.5966],[-80.0205,37.6475],[-79.969,37.5444],[-80.074,37.4223],[-80.262,37.3407],[-80.3279,37.3668],[-80.4334,37.3149],[-80.4756,37.4229],[-80.4648,37.4261],[-80.443,37.4381],[-80.4257,37.4499],[-80.3206,37.4989],[-80.3148,37.5009],[-80.3303,37.5362],[-80.3124,37.5462],[-80.2888,37.582],[-80.2403,37.607],[-80.2234,37.6232],[-80.221,37.6278]]]}},{"type":"Feature","id":"51051","properties":{"fips":"51051","name":"Dickenson","state":"VA"},"geometry":{"type":"Polygon","coordinates":[[[-82.1487,37.0417],[-82.328,36.9709],[-82.4674,37.0221],[-82.5462,37.125],[-82.5535,37.2009],[-82.5108,37.2181],[-82.3509,37.2671],[-82.3108,37.2974],[-82.3059,37.3011],[-82.1359,37.0612],[-82.1487,37.0417]]]}},{"type":"Feature","id":"51059","properties":{"fips":"51059","name":"Fairfax","state":"VA"},"geometry":{"type":"Polygon","coordinates":[[[-77.088,38.825],[-77.0392,38.7852],[-77.0414,38.7639],[-77.0599,38.7344],[-77.0746,38.711],[-77.0861,38.7058],[-77.1059,38.6968],[-77.1211,38.6866],[-77.1325,38.6738],[-77.1359,38.6498],[-77.1302,38.635],[-77.1575,38.6364],[-77.1749,38.6242],[-77.202,38.6172],[-77.2043,38.6178],[-77.2051,38.6239],[-77.2163,38.6378],[-77.2224,38.6381],[-77.3805,38.7225],[-77.3879,38.7482],[-77.4491,38.8031],[-77.5358,38.8475],[-77.3283,39.0577],[-77.328,39.0586],[-77.2916,39.0454],[-77.2614,39.031],[-77.2518,39.0114],[-77.2557,39.0024],[-77.2498,38.9859],[-77.2354,38.9766],[-77.2215,38.9713],[-77.1975,38.9668],[-77.1669,38.9681],[-77.1482,38.965],[-77.1377,38.9553],[-77.1199,38.9343],[-77.1199,38.9343],[-77.1485,38.912],[-77.1497,38.9105],[-77.1544,38.907],[-77.1575,38.9049],[-77.1681,38.8965],[-77.1722,38.8933],[-77.1889,38.8963],[-77.1943,38.8861],[-77.1898,38.8781],[-77.1732,38.8786],[-77.155,38.8722],[-77.1503,38.8762],[-77.1107,38.8435],[-77.088,38.825]],[[-77.3348,38.8514],[-77.3187,38.8347],[-77.2705,38.841],[-77.2706,38.8661],[-77.3288,38.8648],[-77.3348,38.8514]]]}},{"type":"Feature","id":"51061","properties":{"fips":"51061","name":"Fauquier","state":"VA"},"geometry":{"type":"Polygon","coordinates":[[[-77.6633,38.7529],[-77.5803,38.6277],[-77.5358,38.5616],[-77.5309,38.5559],[-77.6342,38.4645],[-77.6348,38.4097],[-77.7355,38.4131],[-77.8772,38.5849],[-77.9355,38.6959],[-78.0281,38.7593],[-78.1222,38.8566],[-78.1236,38.8649],[-78.1306,38.8649],[-78.0042,38.9795],[-77.9898,38.9938],[-77.9904,38.9963],[-77.9651,39.0089],[-77.962,39.0138],[-77.9603,39.0134],[-77.6551,38.9426],[-77.6658,38.9159],[-77.6805,38.8932],[-77.6892,38.8892],[-77.7154,38.8322],[-77.6633,38.7529]]]}},{"type":"Feature","id":"51063","properties":{"fips":"51063","name":"Floyd","state":"VA"},"geometry":{"type":"Polygon","coordinates":[[[-80.2355,36.8721],[-80.3869,36.7977],[-80.4642,36.7087],[-80.634,36.9318],[-80.5439,36.9846],[-80.3474,37.0218],[-80.178,37.1134],[-80.1723,37.1082],[-80.1281,37.1229],[-80.1215,36.9914],[-80.2355,36.8721]]]}},{"type":"Feature","id":"51067","properties":{"fips":"51067","name":"Franklin","state":"VA"},"geometry":{"type":"Polygon","coordinates":[[[-79.6407,36.8561],[-79.7618,36.7883],[-79.9998,36.8307],[-80.012,36.7896],[-80.0272,36.7913],[-80.0132,36.7837],[-80.0252,36.7808],[-80.0415,36.7944],[-80.0664,36.8411],[-80.2355,36.8721],[-80.1215,36.9914],[-80.1281,37.1229],[-80.0306,37.1748],[-79.9623,37.1371],[-79.8471,37.2255],[-79.7183,37.1898],[-79.5941,37.0422],[-79.5959,37.0363],[-79.6407,36.8561]]]}},{"type":"Feature","id":"51069","properties":{"fips":"51069","name":"Frederick","state":"VA"},"geometry":{"type":"Polygon","coordinates":[[[-78.5441,39.0567],[-78.5081,39.0886],[-78.4599,39.1134],[-78.4394,39.1321],[-78.4184,39.1567],[-78.4107,39.172],[-78.4267,39.1889],[-78.4387,39.198],[-78.4371,39.1998],[-78.4321,39.2047],[-78.4312,39.2057],[-78.4298,39.207],[-78.4279,39.2086],[-78.424,39.212],[-78.3997,39.2439],[-78.3998,39.2441],[-78.36,39.3178],[-78.3589,39.3195],[-78.3405,39.3535],[-78.3623,39.3578],[-78.3471,39.466],[-78.2288,39.3912],[-78.0332,39.2646],[-78.0332,39.2646],[-78.152,39.0363],[-78.3142,39.008],[-78.3358,39.1015],[-78.454,39.0276],[-78.5441,39.0567]],[[-78.1969,39.1912],[-78.1829,39.131],[-78.137,39.1845],[-78.1549,39.2009],[-78.1969,39.1912]]]}},{"type":"Feature","id":"51071","properties":{"fips":"51071","name":"Giles","state":"VA"},"geometry":{"type":"Polygon","coordinates":[[[-80.98,37.2931],[-80.9739,37.2914],[-80.9666,37.2922],[-80.9479,37.2959],[-80.9193,37.3062],[-80.9005,37.315],[-80.8495,37.3469],[-80.8726,37.3723],[-80.8628,37.4118],[-80.8596,37.4296],[-80.8596,37.4296],[-80.8585,37.4283],[-80.8584,37.4282],[-80.8116,37.4075],[-80.7989,37.3958],[-80.7768,37.3841],[-80.7766,37.3837],[-80.7701,37.3724],[-80.6227,37.4333],[-80.5114,37.4817],[-80.4949,37.4351],[-80.4756,37.4229],[-80.4334,37.3149],[-80.6069,37.2449],[-80.8546,37.1475],[-81.0145,37.2754],[-80.98,37.2931]]]}},{"type":"Feature","id":"51077","properties":{"fips":"51077","name":"Grayson","state":"VA"},"geometry":{"type":"Polygon","coordinates":[[[-81.6058,36.6387],[-81.5445,36.7016],[-81.2616,36.7631],[-81.0885,36.7674],[-81.0424,36.8064],[-80.9323,36.6716],[-80.9441,36.6763],[-80.9478,36.6484],[-80.9217,36.6435],[-80.9317,36.6285],[-80.916,36.6293],[-80.9142,36.6502],[-80.838,36.5591],[-80.9017,36.5618],[-80.9018,36.5618],[-80.9443,36.5631],[-80.946,36.5632],[-81.0588,36.567],[-81.0619,36.567],[-81.3075,36.575],[-81.3532,36.5747],[-81.3533,36.5747],[-81.521,36.5805],[-81.607,36.5871],[-81.6775,36.5881],[-81.6469,36.6119],[-81.6107,36.6169],[-81.6058,36.6387]]]}},{"type":"Feature","id":"51079","properties":{"fips":"51079","name":"Greene","state":"VA"},"geometry":{"type":"Polygon","coordinates":[[[-78.4529,38.4755],[-78.43,38.3672],[-78.287,38.2715],[-78.2977,38.2616],[-78.3698,38.1848],[-78.6632,38.2779],[-78.5515,38.3363],[-78.486,38.4215],[-78.4842,38.4236],[-78.4816,38.4306],[-78.4766,38.4321],[-78.4777,38.4386],[-78.4725,38.4476],[-78.4651,38.447],[-78.4647,38.4525],[-78.4621,38.4547],[-78.4627,38.4595],[-78.4577,38.4648],[-78.4555,38.4725],[-78.4529,38.4755]]]}},{"type":"Feature","id":"51091","properties":{"fips":"51091","name":"Highland","state":"VA"},"geometry":{"type":"Polygon","coordinates":[[[-79.7946,38.2649],[-79.7901,38.2677],[-79.7889,38.2687],[-79.8101,38.305],[-79.8087,38.3094],[-79.7317,38.3741],[-79.6914,38.4396],[-79.6895,38.4425],[-79.689,38.4495],[-79.6882,38.4505],[-79.699,38.4751],[-79.6956,38.4778],[-79.6691,38.5109],[-79.6691,38.511],[-79.6491,38.5915],[-79.598,38.5728],[-79.5555,38.5602],[-79.5369,38.5509],[-79.5215,38.5339],[-79.4766,38.4572],[-79.3123,38.4119],[-79.4381,38.2162],[-79.5122,38.1804],[-79.7062,38.2212],[-79.7946,38.2649]]]}},{"type":"Feature","id":"51107","properties":{"fips":"51107","name":"Loudoun","state":"VA"},"geometry":{"type":"Polygon","coordinates":[[[-77.6551,38.9426],[-77.9603,39.0134],[-77.962,39.0138],[-77.8282,39.1323],[-77.8222,39.14],[-77.7714,39.2368],[-77.7673,39.2494],[-77.769,39.2564],[-77.768,39.2577],[-77.7618,39.263],[-77.7612,39.2637],[-77.7587,39.2681],[-77.7584,39.2692],[-77.7557,39.2746],[-77.7552,39.2752],[-77.7531,39.2773],[-77.7531,39.278],[-77.7534,39.2803],[-77.7503,39.2893],[-77.719,39.3211],[-77.6775,39.3187],[-77.6677,39.3181],[-77.5927,39.3013],[-77.5609,39.2862],[-77.5458,39.2715],[-77.5432,39.2669],[-77.5345,39.2624],[-77.5112,39.2535],[-77.4846,39.2459],[-77.4602,39.2284],[-77.4577,39.225],[-77.4588,39.2203],[-77.4589,39.2198],[-77.4786,39.1892],[-77.486,39.1857],[-77.5052,39.182],[-77.5106,39.1785],[-77.5164,39.1709],[-77.5273,39.1462],[-77.5246,39.1278],[-77.5199,39.1209],[-77.4582,39.0737],[-77.4232,39.0669],[-77.3751,39.0613],[-77.3403,39.063],[-77.328,39.0586],[-77.3283,39.0577],[-77.5358,38.8475],[-77.6551,38.9426]]]}},{"type":"Feature","id":"51113","properties":{"fips":"51113","name":"Madison","state":"VA"},"geometry":{"type":"Polygon","coordinates":[[[-78.4529,38.4755],[-78.3383,38.6273],[-78.232,38.5326],[-78.0964,38.4046],[-78.0946,38.3114],[-78.2206,38.2303],[-78.287,38.2715],[-78.43,38.3672],[-78.4529,38.4755]]]}},{"type":"Feature","id":"51121","properties":{"fips":"51121","name":"Montgomery","state":"VA"},"geometry":{"type":"Polygon","coordinates":[[[-80.262,37.3407],[-80.2585,37.3083],[-80.2052,37.248],[-80.178,37.1134],[-80.3474,37.0218],[-80.5439,36.9846],[-80.5801,37.0896],[-80.5563,37.0996],[-80.5552,37.1174],[-80.5326,37.1181],[-80.5073,37.1358],[-80.5249,37.1484],[-80.5276,37.1344],[-80.5297,37.1341],[-80.6069,37.2449],[-80.4334,37.3149],[-80.3279,37.3668],[-80.262,37.3407]]]}},{"type":"Feature","id":"51139","properties":{"fips":"51139","name":"Page","state":"VA"},"geometry":{"type":"Polygon","coordinates":[[[-78.2849,38.7592],[-78.3383,38.6273],[-78.4529,38.4755],[-78.4555,38.4725],[-78.4577,38.4648],[-78.4627,38.4595],[-78.4621,38.4547],[-78.4647,38.4525],[-78.4651,38.447],[-78.4725,38.4476],[-78.4777,38.4386],[-78.4766,38.4321],[-78.4816,38.4306],[-78.4842,38.4236],[-78.486,38.4215],[-78.6913,38.51],[-78.6418,38.6047],[-78.5488,38.7387],[-78.5093,38.7256],[-78.3867,38.8302],[-78.2849,38.7592]]]}},{"type":"Feature","id":"51153","properties":{"fips":"51153","name":"Prince William","state":"VA"},"geometry":{"type":"Polygon","coordinates":[[[-77.5309,38.5559],[-77.5358,38.5616],[-77.5803,38.6277],[-77.6633,38.7529],[-77.7154,38.8322],[-77.6892,38.8892],[-77.6805,38.8932],[-77.6658,38.9159],[-77.6551,38.9426],[-77.5358,38.8475],[-77.4491,38.8031],[-77.3879,38.7482],[-77.3805,38.7225],[-77.2224,38.6381],[-77.2406,38.6389],[-77.2467,38.6352],[-77.2489,38.6286],[-77.2451,38.6207],[-77.2464,38.5995],[-77.247,38.5906],[-77.2644,38.5828],[-77.2653,38.5803],[-77.2608,38.5653],[-77.2766,38.5471],[-77.2763,38.5396],[-77.2835,38.5252],[-77.2911,38.5157],[-77.2958,38.5115],[-77.2988,38.5087],[-77.3008,38.507],[-77.3025,38.5047],[-77.4916,38.5909],[-77.5309,38.5559]],[[-77.4714,38.7282],[-77.4516,38.7383],[-77.4475,38.7611],[-77.4593,38.7726],[-77.4275,38.7534],[-77.4207,38.7622],[-77.4222,38.7689],[-77.4406,38.7826],[-77.4453,38.7707],[-77.4595,38.7784],[-77.4585,38.7874],[-77.4732,38.7882],[-77.4757,38.7812],[-77.4959,38.7706],[-77.5265,38.7325],[-77.5247,38.724],[-77.4714,38.7282]]]}},{"type":"Feature","id":"51155","properties":{"fips":"51155","name":"Pulaski","state":"VA"},"geometry":{"type":"Polygon","coordinates":[[[-80.5297,37.1341],[-80.5488,37.1466],[-80.5731,37.1399],[-80.5929,37.1279],[-80.5964,37.1189],[-80.5904,37.102],[-80.5801,37.0896],[-80.5439,36.9846],[-80.634,36.9318],[-80.7405,36.879],[-80.9127,37.0733],[-80.8546,37.1475],[-80.6069,37.2449],[-80.5297,37.1341]]]}},{"type":"Feature","id":"51157","properties":{"fips":"51157","name":"Rappahannock","state":"VA"},"geometry":{"type":"Polygon","coordinates":[[[-78.0281,38.7593],[-77.9355,38.6959],[-78.1688,38.5238],[-78.232,38.5326],[-78.3383,38.6273],[-78.2849,38.7592],[-78.1302,38.8621],[-78.1299,38.8628],[-78.1306,38.8649],[-78.1236,38.8649],[-78.1222,38.8566],[-78.0281,38.7593]]]}},{"type":"Feature","id":"51161","properties":{"fips":"51161","name":"Roanoke","state":"VA"},"geometry":{"type":"Polygon","coordinates":[[[-79.9456,37.363],[-79.8651,37.3284],[-79.8476,37.3092],[-79.8471,37.2255],[-79.9623,37.1371],[-80.0306,37.1748],[-80.1281,37.1229],[-80.1723,37.1082],[-80.178,37.1134],[-80.2052,37.248],[-80.2585,37.3083],[-80.262,37.3407],[-80.074,37.4223],[-80.0626,37.4083],[-79.9456,37.363]],[[-79.9743,37.3352],[-79.9798,37.3318],[-79.9931,37.3248],[-80.0011,37.3192],[-80.0048,37.3156],[-80.0126,37.3165],[-80.0171,37.3143],[-80.0224,37.3082],[-80.1205,37.2871],[-80.0335,37.2628],[-79.9504,37.2113],[-79.905,37.2443],[-79.9176,37.2809],[-79.8826,37.2946],[-79.8782,37.2917],[-79.905,37.3205],[-79.9743,37.3352]]]}},{"type":"Feature","id":"51163","properties":{"fips":"51163","name":"Rockbridge","state":"VA"},"geometry":{"type":"Polygon","coordinates":[[[-79.4824,38.0861],[-79.184,37.9142],[-79.1574,37.891],[-79.1719,37.8031],[-79.2644,37.7947],[-79.345,37.6611],[-79.4369,37.617],[-79.4986,37.5329],[-79.6836,37.6617],[-79.674,37.7631],[-79.6508,37.8716],[-79.4824,38.0861]],[[-79.3668,37.7272],[-79.3826,37.7063],[-79.3599,37.7024],[-79.3288,37.7606],[-79.3804,37.7438],[-79.3668,37.7272]],[[-79.4576,37.7662],[-79.4153,37.7891],[-79.4565,37.7913],[-79.4619,37.7862],[-79.4576,37.7662]]]}},{"type":"Feature","id":"51165","properties":{"fips":"51165","name":"Rockingham","state":"VA"},"geometry":{"type":"Polygon","coordinates":[[[-79.2258,38.4794],[-79.21,38.4942],[-79.21,38.4943],[-79.2097,38.4956],[-79.2079,38.5001],[-79.2079,38.5004],[-79.1749,38.5663],[-79.1745,38.5665],[-79.147,38.6256],[-79.1467,38.6258],[-79.137,38.6407],[-79.1364,38.6424],[-79.1355,38.6437],[-79.1355,38.6441],[-79.0923,38.6992],[-79.0926,38.7001],[-79.0573,38.7614],[-79.0554,38.7822],[-78.9998,38.8462],[-78.994,38.8501],[-78.8693,38.763],[-78.6418,38.6047],[-78.6913,38.51],[-78.486,38.4215],[-78.5515,38.3363],[-78.6632,38.2779],[-78.7494,38.2066],[-79.2258,38.4794]],[[-78.8707,38.4826],[-78.873,38.4885],[-78.9146,38.3898],[-78.8243,38.4356],[-78.8707,38.4826]]]}},{"type":"Feature","id":"51167","properties":{"fips":"51167","name":"Russell","state":"VA"},"geometry":{"type":"Polygon","coordinates":[[[-82.1487,37.0417],[-82.0177,37.0688],[-81.9011,37.1425],[-81.7805,36.9586],[-81.819,36.9475],[-81.8368,36.929],[-81.9492,36.8644],[-82.0779,36.855],[-82.1076,36.7964],[-82.3321,36.7094],[-82.3567,36.7803],[-82.4066,36.8764],[-82.2986,36.9054],[-82.328,36.9709],[-82.1487,37.0417]]]}},{"type":"Feature","id":"51171","properties":{"fips":"51171","name":"Shenandoah","state":"VA"},"geometry":{"type":"Polygon","coordinates":[[[-78.8693,38.763],[-78.8352,38.8115],[-78.8082,38.8562],[-78.788,38.8851],[-78.7792,38.8923],[-78.7573,38.9032],[-78.7198,38.9226],[-78.7198,38.9221],[-78.717,38.9163],[-78.7141,38.9112],[-78.7109,38.9102],[-78.6017,38.9646],[-78.5576,39.0132],[-78.5542,39.0197],[-78.5658,39.0263],[-78.5719,39.032],[-78.5441,39.0567],[-78.454,39.0276],[-78.3358,39.1015],[-78.3142,39.008],[-78.3005,38.9435],[-78.3867,38.8302],[-78.5093,38.7256],[-78.5488,38.7387],[-78.6418,38.6047],[-78.8693,38.763]]]}},{"type":"Feature","id":"51173","properties":{"fips":"51173","name":"Smyth","state":"VA"},"geometry":{"type":"Polygon","coordinates":[[[-81.7805,36.9586],[-81.683,36.933],[-81.5769,36.9895],[-81.4372,37.0101],[-81.3794,36.9524],[-81.2616,36.7631],[-81.5445,36.7016],[-81.6058,36.6387],[-81.6994,36.7896],[-81.8368,36.929],[-81.819,36.9475],[-81.7805,36.9586]]]}},{"type":"Feature","id":"51185","properties":{"fips":"51185","name":"Tazewell","state":"VA"},"geometry":{"type":"Polygon","coordinates":[[[-81.3622,37.3377],[-81.3201,37.2993],[-81.2251,37.2349],[-81.3281,37.139],[-81.2703,37.093],[-81.4622,37.0355],[-81.4372,37.0101],[-81.5769,36.9895],[-81.683,36.933],[-81.7805,36.9586],[-81.9011,37.1425],[-81.7384,37.2409],[-81.7333,37.2381],[-81.7282,37.2398],[-81.6835,37.2115],[-81.6786,37.2025],[-81.5606,37.2067],[-81.5584,37.2081],[-81.5573,37.2077],[-81.5073,37.2338],[-81.5049,37.2477],[-81.5042,37.2501],[-81.4097,37.2848],[-81.4092,37.2861],[-81.3881,37.3199],[-81.3867,37.3205],[-81.3858,37.3201],[-81.3849,37.3188],[-81.3841,37.3186],[-81.3802,37.3178],[-81.3773,37.3184],[-81.3713,37.3241],[-81.3676,37.3276],[-81.3694,37.3318],[-81.3681,37.3324],[-81.3671,37.3345],[-81.3663,37.3359],[-81.3622,37.3377]]]}},{"type":"Feature","id":"51187","properties":{"fips":"51187","name":"Warren","state":"VA"},"geometry":{"type":"Polygon","coordinates":[[[-78.1302,38.8621],[-78.2849,38.7592],[-78.3867,38.8302],[-78.3005,38.9435],[-78.3142,39.008],[-78.152,39.0363],[-78.0042,38.9795],[-78.1306,38.8649],[-78.1299,38.8628],[-78.1302,38.8621]]]}},{"type":"Feature","id":"51191","properties":{"fips":"51191","name":"Washington","state":"VA"},"geometry":{"type":"Polygon","coordinates":[[[-82.3321,36.7094],[-82.1076,36.7964],[-82.0779,36.855],[-81.9492,36.8644],[-81.8368,36.929],[-81.6994,36.7896],[-81.6058,36.6387],[-81.6107,36.6169],[-81.6469,36.6119],[-81.8267,36.6142],[-81.9226,36.6162],[-81.9341,36.5942],[-82.1461,36.5947],[-82.1145,36.6385],[-82.2433,36.5957],[-82.2938,36.5956],[-82.308,36.6195],[-82.3321,36.7094]]]}},{"type":"Feature","id":"51197","properties":{"fips":"51197","name":"Wythe","state":"VA"},"geometry":{"type":"Polygon","coordinates":[[[-81.3794,36.9524],[-81.2246,37.0478],[-81.1143,37.0226],[-80.9127,37.0733],[-80.7405,36.879],[-81.0424,36.8064],[-81.0885,36.7674],[-81.2616,36.7631],[-81.3794,36.9524]]]}},{"type":"Feature","id":"51515","properties":{"fips":"51515","name":"Bedford","state":"VA"},"geometry":{"type":"Polygon","coordinates":[[[-79.5436,37.3242],[-79.5356,37.3553],[-79.4872,37.3458],[-79.5036,37.3167],[-79.5436,37.3242]]]}},{"type":"Feature","id":"51530","properties":{"fips":"51530","name":"Buena Vista","state":"VA"},"geometry":{"type":"Polygon","coordinates":[[[-79.3668,37.7272],[-79.3804,37.7438],[-79.3288,37.7606],[-79.3599,37.7024],[-79.3826,37.7063],[-79.3668,37.7272]]]}},{"type":"Feature","id":"51580","properties":{"fips":"51580","name":"Covington","state":"VA"},"geometry":{"type":"Polygon","coordinates":[[[-79.9959,37.7822],[-80.0014,37.7898],[-79.993,37.7971],[-79.9921,37.7998],[-79.9991,37.8062],[-79.9892,37.811],[-79.9874,37.8136],[-79.9845,37.812],[-79.9836,37.8023],[-79.9671,37.8034],[-79.9665,37.7925],[-79.98,37.7811],[-79.9773,37.7673],[-79.9665,37.7571],[-79.9926,37.7482],[-80.0089,37.763],[-80.0012,37.7688],[-79.9959,37.7822]]]}},{"type":"Feature","id":"51600","properties":{"fips":"51600","name":"Fairfax","state":"VA"},"geometry":{"type":"Polygon","coordinates":[[[-77.3348,38.8514],[-77.3288,38.8648],[-77.2706,38.8661],[-77.2705,38.841],[-77.3187,38.8347],[-77.3348,38.8514]]]}},{"type":"Feature","id":"51610","properties":{"fips":"51610","name":"Falls Church","state":"VA"},"geometry":{"type":"Polygon","coordinates":[[[-77.1503,38.8762],[-77.155,38.8722],[-77.1732,38.8786],[-77.1898,38.8781],[-77.1943,38.8861],[-77.1889,38.8963],[-77.1722,38.8933],[-77.1503,38.8762]]]}},{"type":"Feature","id":"51640","properties":{"fips":"51640","name":"Galax","state":"VA"},"geometry":{"type":"Polygon","coordinates":[[[-80.9323,36.6716],[-80.9205,36.6781],[-80.9176,36.6941],[-80.8773,36.6922],[-80.9142,36.6502],[-80.916,36.6293],[-80.9317,36.6285],[-80.9217,36.6435],[-80.9478,36.6484],[-80.9441,36.6763],[-80.9323,36.6716]]]}},{"type":"Feature","id":"51660","properties":{"fips":"51660","name":"Harrisonburg","state":"VA"},"geometry":{"type":"Polygon","coordinates":[[[-78.8707,38.4826],[-78.8243,38.4356],[-78.9146,38.3898],[-78.873,38.4885],[-78.8707,38.4826]]]}},{"type":"Feature","id":"51678","properties":{"fips":"51678","name":"Lexington","state":"VA"},"geometry":{"type":"Polygon","coordinates":[[[-79.4576,37.7662],[-79.4619,37.7862],[-79.4565,37.7913],[-79.4153,37.7891],[-79.4576,37.7662]]]}},{"type":"Feature","id":"51683","properties":{"fips":"51683","name":"Manassas","state":"VA"},"geometry":{"type":"Polygon","coordinates":[[[-77.4593,38.7726],[-77.4475,38.7611],[-77.4516,38.7383],[-77.4714,38.7282],[-77.5247,38.724],[-77.5265,38.7325],[-77.4959,38.7706],[-77.4757,38.7812],[-77.4747,38.7814],[-77.4622,38.7745],[-77.4593,38.7726]]]}},{"type":"Feature","id":"51685","properties":{"fips":"51685","name":"Manassas Park","state":"VA"},"geometry":{"type":"Polygon","coordinates":[[[-77.4757,38.7812],[-77.4732,38.7882],[-77.4585,38.7874],[-77.4595,38.7784],[-77.4453,38.7707],[-77.4406,38.7826],[-77.4222,38.7689],[-77.4207,38.7622],[-77.4275,38.7534],[-77.4593,38.7726],[-77.4622,38.7745],[-77.4747,38.7814],[-77.4757,38.7812]]]}},{"type":"Feature","id":"51750","properties":{"fips":"51750","name":"Radford","state":"VA"},"geometry":{"type":"Polygon","coordinates":[[[-80.5801,37.0896],[-80.5904,37.102],[-80.5964,37.1189],[-80.5929,37.1279],[-80.5731,37.1399],[-80.5488,37.1466],[-80.5297,37.1341],[-80.5276,37.1344],[-80.5249,37.1484],[-80.5073,37.1358],[-80.5326,37.1181],[-80.5552,37.1174],[-80.5563,37.0996],[-80.5801,37.0896]]]}},{"type":"Feature","id":"51770","properties":{"fips":"51770","name":"Roanoke","state":"VA"},"geometry":{"type":"Polygon","coordinates":[[[-80.0224,37.3082],[-80.0171,37.3143],[-80.0126,37.3165],[-80.0048,37.3156],[-80.0011,37.3192],[-79.9931,37.3248],[-79.9798,37.3318],[-79.9743,37.3352],[-79.905,37.3205],[-79.8782,37.2917],[-79.8826,37.2946],[-79.9176,37.2809],[-79.905,37.2443],[-79.9504,37.2113],[-80.0335,37.2628],[-80.0188,37.2643],[-80.0224,37.3082]]]}},{"type":"Feature","id":"51775","properties":{"fips":"51775","name":"Salem","state":"VA"},"geometry":{"type":"Polygon","coordinates":[[[-80.0224,37.3082],[-80.0188,37.2643],[-80.0335,37.2628],[-80.1205,37.2871],[-80.0224,37.3082]]]}},{"type":"Feature","id":"51790","properties":{"fips":"51790","name":"Staunton","state":"VA"},"geometry":{"type":"Polygon","coordinates":[[[-79.0917,38.1321],[-79.0971,38.1848],[-79.023,38.1958],[-79.0498,38.1211],[-79.0917,38.1321]]]}},{"type":"Feature","id":"51820","properties":{"fips":"51820","name":"Waynesboro","state":"VA"},"geometry":{"type":"Polygon","coordinates":[[[-78.9496,38.0572],[-78.9035,38.1],[-78.8558,38.0744],[-78.8722,38.0396],[-78.9496,38.0572]]]}},{"type":"Feature","id":"51840","properties":{"fips":"51840","name":"Winchester","state":"VA"},"geometry":{"type":"Polygon","coordinates":[[[-78.1969,39.1912],[-78.1549,39.2009],[-78.137,39.1845],[-78.1829,39.131],[-78.1969,39.1912]]]}},{"type":"Feature","id":"54001","properties":{"fips":"54001","name":"Barbour","state":"WV"},"geometry":{"type":"Polygon","coordinates":[[[-80.1664,39.2423],[-80.0234,39.2479],[-79.8955,39.2996],[-79.8097,39.2305],[-79.8251,39.1158],[-79.8961,38.9734],[-80.0851,38.9472],[-80.0558,39.0372],[-80.1282,39.0378],[-80.2272,39.1128],[-80.2247,39.171],[-80.1664,39.2423]]]}},{"type":"Feature","id":"54003","properties":{"fips":"54003","name":"Berkeley","state":"WV"},"geometry":{"type":"Polygon","coordinates":[[[-78.2288,39.3912],[-78.1389,39.5938],[-78.0234,39.6199],[-78.01,39.6029],[-77.9464,39.5849],[-77.9026,39.5878],[-77.8845,39.5682],[-77.8861,39.5604],[-77.8889,39.556],[-77.8654,39.5165],[-77.8451,39.4983],[-77.8254,39.494],[-77.967,39.3672],[-78.0332,39.2646],[-78.2288,39.3912]]]}},{"type":"Feature","id":"54005","properties":{"fips":"54005","name":"Boone","state":"WV"},"geometry":{"type":"Polygon","coordinates":[[[-81.4566,37.9873],[-81.5713,37.9281],[-81.5142,37.7912],[-81.6075,37.7887],[-81.7221,37.8095],[-81.7856,37.9364],[-81.9797,37.9914],[-81.9325,38.0254],[-81.9276,38.1525],[-81.8335,38.2096],[-81.6437,38.2204],[-81.5158,38.1124],[-81.4566,37.9873]]]}},{"type":"Feature","id":"54007","properties":{"fips":"54007","name":"Braxton","state":"WV"},"geometry":{"type":"Polygon","coordinates":[[[-80.8812,38.507],[-81.0317,38.6678],[-80.9849,38.7179],[-80.7018,38.8789],[-80.6058,38.9042],[-80.4461,38.7775],[-80.4573,38.7392],[-80.5087,38.6456],[-80.6508,38.5266],[-80.7852,38.5576],[-80.8812,38.507]]]}},{"type":"Feature","id":"54009","properties":{"fips":"54009","name":"Brooke","state":"WV"},"geometry":{"type":"Polygon","coordinates":[[[-80.518,40.3996],[-80.518,40.3989],[-80.5191,40.1728],[-80.5191,40.1727],[-80.5191,40.1597],[-80.6854,40.1876],[-80.6521,40.245],[-80.6446,40.2513],[-80.6372,40.2551],[-80.6167,40.2803],[-80.6029,40.3071],[-80.5999,40.3177],[-80.6093,40.3605],[-80.6192,40.3818],[-80.6173,40.396],[-80.5738,40.3998],[-80.518,40.3996]]]}},{"type":"Feature","id":"54011","properties":{"fips":"54011","name":"Cabell","state":"WV"},"geometry":{"type":"Polygon","coordinates":[[[-82.0471,38.3744],[-82.1768,38.3396],[-82.2648,38.2292],[-82.2979,38.3274],[-82.3439,38.3052],[-82.5067,38.4101],[-82.3406,38.4409],[-82.3303,38.4445],[-82.324,38.4493],[-82.3202,38.4545],[-82.3139,38.4681],[-82.2956,38.5398],[-82.2933,38.5603],[-82.2939,38.5727],[-82.2913,38.579],[-82.2871,38.5826],[-82.2743,38.5937],[-82.2621,38.5982],[-82.246,38.5985],[-82.219,38.5917],[-82.0551,38.4745],[-82.0471,38.3744]]]}},{"type":"Feature","id":"54013","properties":{"fips":"54013","name":"Calhoun","state":"WV"},"geometry":{"type":"Polygon","coordinates":[[[-80.9849,38.7179],[-81.0317,38.6678],[-81.0837,38.612],[-81.1588,38.6445],[-81.1718,38.7398],[-81.2784,38.9149],[-81.1625,39.0306],[-81.0336,39.0096],[-81.0028,38.846],[-81.0567,38.7933],[-80.9849,38.7179]]]}},{"type":"Feature","id":"54015","properties":{"fips":"54015","name":"Clay","state":"WV"},"geometry":{"type":"Polygon","coordinates":[[[-81.2314,38.2637],[-81.2839,38.472],[-81.1941,38.5276],[-81.1308,38.5659],[-81.0837,38.612],[-81.0317,38.6678],[-80.8812,38.507],[-80.8174,38.4786],[-80.9114,38.4148],[-81.2314,38.2637]]]}},{"type":"Feature","id":"54017","properties":{"fips":"54017","name":"Doddridge","state":"WV"},"geometry":{"type":"Polygon","coordinates":[[[-80.5445,39.4291],[-80.5318,39.3601],[-80.6037,39.291],[-80.5257,39.2094],[-80.5961,39.1671],[-80.7283,39.0957],[-80.7492,39.0998],[-80.813,39.1094],[-80.9138,39.2729],[-80.8887,39.2943],[-80.6186,39.4504],[-80.5445,39.4291]]]}},{"type":"Feature","id":"54019","properties":{"fips":"54019","name":"Fayette","state":"WV"},"geometry":{"type":"Polygon","coordinates":[[[-81.2316,38.2635],[-81.0705,38.2101],[-80.9835,38.2225],[-80.8822,38.1035],[-80.7699,37.9853],[-80.8063,37.8689],[-80.9451,37.8191],[-81.091,37.8497],[-81.0732,37.8759],[-81.2951,37.8893],[-81.2966,37.944],[-81.3808,37.9691],[-81.3315,38.1676],[-81.2316,38.2635]]]}},{"type":"Feature","id":"54021","properties":{"fips":"54021","name":"Gilmer","state":"WV"},"geometry":{"type":"Polygon","coordinates":[[[-80.6058,38.9042],[-80.7018,38.8789],[-80.9849,38.7179],[-81.0567,38.7933],[-81.0028,38.846],[-81.0336,39.0096],[-80.813,39.1094],[-80.7492,39.0998],[-80.7283,39.0957],[-80.7168,39.0084],[-80.6058,38.9042]]]}},{"type":"Feature","id":"54023","properties":{"fips":"54023","name":"Grant","state":"WV"},"geometry":{"type":"Polygon","coordinates":[[[-78.9799,39.2376],[-79.0897,39.0382],[-79.046,38.9287],[-79.1343,38.8133],[-79.3499,38.9575],[-79.3496,38.9587],[-79.3577,38.9645],[-79.2982,39.0732],[-79.3555,39.0865],[-79.2893,39.1897],[-79.4872,39.1949],[-79.4869,39.206],[-79.4029,39.2501],[-79.3787,39.2719],[-79.28,39.3401],[-79.1345,39.3125],[-78.9799,39.2376]]]}},{"type":"Feature","id":"54025","properties":{"fips":"54025","name":"Greenbrier","state":"WV"},"geometry":{"type":"Polygon","coordinates":[[[-80.8822,38.1035],[-80.712,38.0791],[-80.4365,38.2673],[-80.36,38.2258],[-80.3633,38.1143],[-80.2647,38.0466],[-80.1692,38.0361],[-79.9598,38.0637],[-79.9784,38.0291],[-80.0025,37.9928],[-80.0553,37.9517],[-80.1305,37.8932],[-80.1461,37.8845],[-80.1473,37.8859],[-80.149,37.8861],[-80.1622,37.8751],[-80.2271,37.7989],[-80.2316,37.7926],[-80.2574,37.7561],[-80.2628,37.7383],[-80.2603,37.7335],[-80.2593,37.7312],[-80.2639,37.7191],[-80.2871,37.6964],[-80.2961,37.6918],[-80.4507,37.6839],[-80.6633,37.7317],[-80.8063,37.8689],[-80.7699,37.9853],[-80.8822,38.1035]]]}},{"type":"Feature","id":"54027","properties":{"fips":"54027","name":"Hampshire","state":"WV"},"geometry":{"type":"Polygon","coordinates":[[[-78.5081,39.0886],[-78.8997,39.1991],[-78.9799,39.2376],[-78.8507,39.3311],[-78.7674,39.4472],[-78.6573,39.5351],[-78.656,39.5347],[-78.5659,39.5194],[-78.4686,39.5168],[-78.3471,39.466],[-78.3623,39.3578],[-78.3405,39.3535],[-78.3589,39.3195],[-78.36,39.3178],[-78.3998,39.2441],[-78.3997,39.2439],[-78.424,39.212],[-78.4279,39.2086],[-78.4298,39.207],[-78.4312,39.2057],[-78.4321,39.2047],[-78.4371,39.1998],[-78.4387,39.198],[-78.4267,39.1889],[-78.4107,39.172],[-78.4184,39.1567],[-78.4394,39.1321],[-78.4599,39.1134],[-78.5081,39.0886]]]}},{"type":"Feature","id":"54029","properties":{"fips":"54029","name":"Hancock","state":"WV"},"geometry":{"type":"Polygon","coordinates":[[[-80.5191,40.5179],[-80.5187,40.4774],[-80.518,40.3996],[-80.5738,40.3998],[-80.6173,40.396],[-80.6123,40.4349],[-80.5992,40.4826],[-80.6103,40.491],[-80.6669,40.5737],[-80.668,40.5825],[-80.6659,40.5877],[-80.6344,40.6161],[-80.6272,40.6199],[-80.6015,40.6254],[-80.5941,40.6237],[-80.589,40.6201],[-80.5607,40.6237],[-80.519,40.6388],[-80.519,40.6164],[-80.5191,40.6164],[-80.5191,40.5902],[-80.5191,40.5902],[-80.5191,40.5179],[-80.5191,40.5179]]]}},{"type":"Feature","id":"54031","properties":{"fips":"54031","name":"Hardy","state":"WV"},"geometry":{"type":"Polygon","coordinates":[[[-78.5719,39.032],[-78.5658,39.0263],[-78.5542,39.0197],[-78.5576,39.0132],[-78.6017,38.9646],[-78.7109,38.9102],[-78.7141,38.9112],[-78.717,38.9163],[-78.7198,38.9221],[-78.7198,38.9226],[-78.7573,38.9032],[-78.7792,38.8923],[-78.788,38.8851],[-78.8082,38.8562],[-78.8352,38.8115],[-78.8693,38.763],[-78.994,38.8501],[-78.9998,38.8462],[-79.0554,38.7822],[-79.0573,38.7614],[-79.1343,38.8133],[-79.046,38.9287],[-79.0897,39.0382],[-78.9799,39.2376],[-78.8997,39.1991],[-78.5081,39.0886],[-78.5441,39.0567],[-78.5719,39.032]]]}},{"type":"Feature","id":"54033","properties":{"fips":"54033","name":"Harrison","state":"WV"},"geometry":{"type":"Polygon","coordinates":[[[-80.5445,39.4291],[-80.5156,39.4377],[-80.5127,39.4586],[-80.494,39.4611],[-80.4941,39.4696],[-80.2937,39.4343],[-80.1973,39.3932],[-80.1664,39.2423],[-80.2247,39.171],[-80.2272,39.1128],[-80.2404,39.1131],[-80.2488,39.1008],[-80.3002,39.1039],[-80.5961,39.1671],[-80.5257,39.2094],[-80.6037,39.291],[-80.5318,39.3601],[-80.5445,39.4291]]]}},{"type":"Feature","id":"54035","properties":{"fips":"54035","name":"Jackson","state":"WV"},"geometry":{"type":"Polygon","coordinates":[[[-81.5222,38.6127],[-81.6328,38.5544],[-81.6963,38.6264],[-81.7477,38.6841],[-81.7728,38.6808],[-81.9086,38.8785],[-81.8749,38.8812],[-81.76,38.9258],[-81.7561,38.9335],[-81.7643,39.0153],[-81.7729,39.0262],[-81.7933,39.0404],[-81.8034,39.0477],[-81.8117,39.0596],[-81.8142,39.0735],[-81.8124,39.0821],[-81.7473,39.0954],[-81.7473,39.0954],[-81.5814,39.0262],[-81.5026,38.9179],[-81.5466,38.6724],[-81.5222,38.6127]]]}},{"type":"Feature","id":"54037","properties":{"fips":"54037","name":"Jefferson","state":"WV"},"geometry":{"type":"Polygon","coordinates":[[[-77.8078,39.4902],[-77.7654,39.4286],[-77.7392,39.3857],[-77.7604,39.3442],[-77.7606,39.3389],[-77.7558,39.3339],[-77.7274,39.3217],[-77.719,39.3211],[-77.7503,39.2893],[-77.7534,39.2803],[-77.7531,39.278],[-77.7531,39.2773],[-77.7552,39.2752],[-77.7557,39.2746],[-77.7584,39.2692],[-77.7587,39.2681],[-77.7612,39.2637],[-77.7618,39.263],[-77.768,39.2577],[-77.769,39.2564],[-77.7673,39.2494],[-77.7714,39.2368],[-77.8222,39.14],[-77.8282,39.1323],[-78.0328,39.2644],[-78.0332,39.2646],[-78.0332,39.2646],[-77.967,39.3672],[-77.8254,39.494],[-77.8078,39.4902]]]}},{"type":"Feature","id":"54039","properties":{"fips":"54039","name":"Kanawha","state":"WV"},"geometry":{"type":"Polygon","coordinates":[[[-81.5222,38.6127],[-81.4654,38.5499],[-81.1941,38.5276],[-81.2839,38.472],[-81.2314,38.2637],[-81.2316,38.2635],[-81.3315,38.1676],[-81.3808,37.9691],[-81.4143,37.9735],[-81.4385,37.968],[-81.4566,37.9873],[-81.5158,38.1124],[-81.6437,38.2204],[-81.8335,38.2096],[-81.8182,38.3168],[-81.9152,38.3256],[-81.9002,38.3986],[-81.7258,38.4666],[-81.7505,38.591],[-81.6963,38.6264],[-81.6328,38.5544],[-81.5222,38.6127]]]}},{"type":"Feature","id":"54041","properties":{"fips":"54041","name":"Lewis","state":"WV"},"geometry":{"type":"Polygon","coordinates":[[[-80.4573,38.7392],[-80.4461,38.7775],[-80.6058,38.9042],[-80.7168,39.0084],[-80.7283,39.0957],[-80.5961,39.1671],[-80.3002,39.1039],[-80.3175,38.9586],[-80.387,38.8748],[-80.3931,38.7276],[-80.4047,38.7234],[-80.4266,38.731],[-80.4447,38.7267],[-80.4573,38.7392]]]}},{"type":"Feature","id":"54043","properties":{"fips":"54043","name":"Lincoln","state":"WV"},"geometry":{"type":"Polygon","coordinates":[[[-81.9152,38.3256],[-81.8182,38.3168],[-81.8335,38.2096],[-81.9276,38.1525],[-81.9325,38.0254],[-82.1907,37.9748],[-82.3064,37.9436],[-82.2039,38.0236],[-82.2833,38.1419],[-82.2648,38.2292],[-82.1768,38.3396],[-82.0471,38.3744],[-82.0486,38.2901],[-81.9918,38.2691],[-81.9152,38.3256]]]}},{"type":"Feature","id":"54045","properties":{"fips":"54045","name":"Logan","state":"WV"},"geometry":{"type":"Polygon","coordinates":[[[-81.8029,37.6605],[-81.9302,37.682],[-81.9917,37.6427],[-82.0826,37.7016],[-82.1124,37.854],[-82.1907,37.9748],[-81.9325,38.0254],[-81.9797,37.9914],[-81.7856,37.9364],[-81.7221,37.8095],[-81.6075,37.7887],[-81.7647,37.7521],[-81.7017,37.7014],[-81.8029,37.6605]]]}},{"type":"Feature","id":"54047","properties":{"fips":"54047","name":"McDowell","state":"WV"},"geometry":{"type":"Polygon","coordinates":[[[-81.8559,37.5489],[-81.7294,37.4946],[-81.6544,37.5233],[-81.4658,37.4847],[-81.3112,37.4245],[-81.3622,37.3377],[-81.3663,37.3359],[-81.3671,37.3345],[-81.3681,37.3324],[-81.3694,37.3318],[-81.3676,37.3276],[-81.3713,37.3241],[-81.3773,37.3184],[-81.3802,37.3178],[-81.3841,37.3186],[-81.3849,37.3188],[-81.3858,37.3201],[-81.3867,37.3205],[-81.3881,37.3199],[-81.4092,37.2861],[-81.4097,37.2848],[-81.5042,37.2501],[-81.5049,37.2477],[-81.5073,37.2338],[-81.5573,37.2077],[-81.5584,37.2081],[-81.5606,37.2067],[-81.6786,37.2025],[-81.6835,37.2115],[-81.7282,37.2398],[-81.7333,37.2381],[-81.7384,37.2409],[-81.7443,37.2442],[-81.7434,37.2459],[-81.7435,37.2476],[-81.7477,37.2643],[-81.7513,37.2651],[-81.7521,37.2656],[-81.7529,37.2666],[-81.755,37.2677],[-81.7575,37.27],[-81.7577,37.2711],[-81.7577,37.2719],[-81.7576,37.274],[-81.7602,37.2753],[-81.7618,37.2757],[-81.7628,37.2754],[-81.7638,37.2752],[-81.7652,37.2751],[-81.7678,37.2742],[-81.7747,37.2748],[-81.7747,37.2748],[-81.7934,37.2817],[-81.7936,37.2822],[-81.8092,37.283],[-81.8106,37.283],[-81.8423,37.2856],[-81.8432,37.2856],[-81.8541,37.2914],[-81.8535,37.2948],[-81.8545,37.2999],[-81.854,37.3004],[-81.8648,37.3084],[-81.8652,37.3088],[-81.8732,37.3251],[-81.8783,37.3288],[-81.8787,37.3318],[-81.8796,37.3321],[-81.8809,37.3311],[-81.8851,37.3307],[-81.887,37.3307],[-81.8877,37.3312],[-81.8929,37.3301],[-81.8938,37.3301],[-81.8948,37.3314],[-81.8948,37.332],[-81.8955,37.332],[-81.896,37.332],[-81.8995,37.3403],[-81.8995,37.3411],[-81.903,37.3423],[-81.9038,37.343],[-81.9059,37.3428],[-81.9064,37.3428],[-81.9073,37.3431],[-81.9079,37.3438],[-81.9109,37.3487],[-81.9115,37.3488],[-81.9207,37.3554],[-81.9216,37.3564],[-81.9256,37.3573],[-81.9266,37.3589],[-81.9299,37.3666],[-81.9302,37.3667],[-81.9339,37.3727],[-81.9275,37.4133],[-81.9356,37.4384],[-81.9494,37.4457],[-81.9688,37.4515],[-81.987,37.4549],[-81.9923,37.4609],[-81.9966,37.4767],[-81.9929,37.483],[-81.9426,37.5088],[-81.9279,37.5121],[-81.9226,37.5119],[-81.9128,37.5204],[-81.9094,37.527],[-81.898,37.5244],[-81.8892,37.5284],[-81.886,37.5367],[-81.8829,37.5382],[-81.8694,37.5378],[-81.8652,37.5436],[-81.8559,37.5489]]]}},{"type":"Feature","id":"54049","properties":{"fips":"54049","name":"Marion","state":"WV"},"geometry":{"type":"Polygon","coordinates":[[[-80.4941,39.4696],[-80.4982,39.5633],[-80.3958,39.6373],[-80.1535,39.6104],[-79.9389,39.4525],[-80.0868,39.3865],[-80.1973,39.3932],[-80.2937,39.4343],[-80.4941,39.4696]]]}},{"type":"Feature","id":"54051","properties":{"fips":"54051","name":"Marshall","state":"WV"},"geometry":{"type":"Polygon","coordinates":[[[-80.8286,39.7208],[-80.8123,39.8488],[-80.8062,39.8973],[-80.8096,39.9056],[-80.8087,39.9126],[-80.806,39.9171],[-80.7595,39.9582],[-80.7432,39.9691],[-80.7401,39.9708],[-80.7321,40.0332],[-80.5191,40.0164],[-80.5192,39.9634],[-80.5192,39.9624],[-80.5192,39.9622],[-80.5192,39.9594],[-80.5192,39.9566],[-80.5191,39.9392],[-80.5192,39.937],[-80.5193,39.7214],[-80.8286,39.7208]]]}},{"type":"Feature","id":"54053","properties":{"fips":"54053","name":"Mason","state":"WV"},"geometry":{"type":"Polygon","coordinates":[[[-81.7728,38.6808],[-81.9558,38.6574],[-82.0646,38.608],[-82.0551,38.4745],[-82.219,38.5917],[-82.1938,38.5931],[-82.182,38.5994],[-82.1773,38.6038],[-82.1752,38.6085],[-82.1721,38.6193],[-82.1721,38.626],[-82.1825,38.7088],[-82.1883,38.7341],[-82.1989,38.7577],[-82.2204,38.7737],[-82.2216,38.7872],[-82.2158,38.7975],[-82.1912,38.8151],[-82.1844,38.8165],[-82.1393,38.8664],[-82.0988,38.9583],[-82.0932,38.971],[-82.0516,38.9944],[-82.0457,39.0038],[-82.0416,39.0179],[-82.036,39.0255],[-82.0176,39.0301],[-82.0023,39.0279],[-81.9356,38.9895],[-81.9198,38.9685],[-81.9006,38.9377],[-81.8985,38.9296],[-81.9009,38.9243],[-81.9267,38.9013],[-81.9284,38.8954],[-81.927,38.8916],[-81.9086,38.8785],[-81.7728,38.6808]]]}},{"type":"Feature","id":"54055","properties":{"fips":"54055","name":"Mercer","state":"WV"},"geometry":{"type":"Polygon","coordinates":[[[-81.2221,37.5104],[-81.1993,37.5745],[-81.0946,37.5887],[-80.8596,37.4296],[-80.8628,37.4118],[-80.8726,37.3723],[-80.8495,37.3469],[-80.9005,37.315],[-80.9193,37.3062],[-80.9479,37.2959],[-80.9666,37.2922],[-80.9739,37.2914],[-80.98,37.2931],[-80.9813,37.2935],[-81.0347,37.2908],[-81.084,37.2844],[-81.1126,37.2785],[-81.167,37.2629],[-81.2048,37.243],[-81.2251,37.2349],[-81.3201,37.2993],[-81.3622,37.3377],[-81.3112,37.4245],[-81.2221,37.5104]]]}},{"type":"Feature","id":"54057","properties":{"fips":"54057","name":"Mineral","state":"WV"},"geometry":{"type":"Polygon","coordinates":[[[-78.9799,39.2376],[-79.1345,39.3125],[-79.28,39.3401],[-79.2569,39.3561],[-79.2132,39.3679],[-79.2017,39.3797],[-79.0845,39.4714],[-79.0671,39.4747],[-79.0424,39.4793],[-79.0257,39.4655],[-78.969,39.4415],[-78.8747,39.5226],[-78.8248,39.5902],[-78.7875,39.6275],[-78.7605,39.61],[-78.769,39.5999],[-78.772,39.5938],[-78.7675,39.5875],[-78.7602,39.5822],[-78.6895,39.5458],[-78.6762,39.5406],[-78.6573,39.5351],[-78.7674,39.4472],[-78.8507,39.3311],[-78.9799,39.2376]]]}},{"type":"Feature","id":"54059","properties":{"fips":"54059","name":"Mingo","state":"WV"},"geometry":{"type":"Polygon","coordinates":[[[-81.8029,37.6605],[-81.8559,37.5489],[-81.8652,37.5436],[-81.8694,37.5378],[-81.8829,37.5382],[-81.886,37.5367],[-81.8892,37.5284],[-81.898,37.5244],[-81.9094,37.527],[-81.9128,37.5204],[-81.9226,37.5119],[-81.9279,37.5121],[-81.9683,37.5378],[-81.9982,37.5431],[-81.9998,37.5426],[-82.0083,37.5334],[-82.0485,37.5311],[-82.1166,37.5596],[-82.1259,37.574],[-82.1256,37.579],[-82.1418,37.5951],[-82.2197,37.643],[-82.2503,37.6578],[-82.297,37.6873],[-82.3072,37.7077],[-82.3257,37.7358],[-82.3264,37.7408],[-82.319,37.7589],[-82.3299,37.7759],[-82.4002,37.8518],[-82.3064,37.9436],[-82.1907,37.9748],[-82.1124,37.854],[-82.0826,37.7016],[-81.9917,37.6427],[-81.9302,37.682],[-81.8029,37.6605]]]}},{"type":"Feature","id":"54061","properties":{"fips":"54061","name":"Monongalia","state":"WV"},"geometry":{"type":"Polygon","coordinates":[[[-80.3958,39.6373],[-80.4214,39.7212],[-80.3095,39.7213],[-80.3087,39.7213],[-79.9163,39.7208],[-79.8531,39.7207],[-79.8529,39.7207],[-79.7638,39.7208],[-79.7893,39.6238],[-79.8997,39.4819],[-79.8947,39.4356],[-79.9389,39.4525],[-80.1535,39.6104],[-80.3958,39.6373]]]}},{"type":"Feature","id":"54063","properties":{"fips":"54063","name":"Monroe","state":"WV"},"geometry":{"type":"Polygon","coordinates":[[[-80.6633,37.7317],[-80.4507,37.6839],[-80.2961,37.6918],[-80.2923,37.684],[-80.2923,37.6837],[-80.2703,37.649],[-80.2704,37.6489],[-80.2675,37.6461],[-80.2672,37.646],[-80.2649,37.6455],[-80.2648,37.6455],[-80.2633,37.6451],[-80.2633,37.6451],[-80.2545,37.6423],[-80.2544,37.6424],[-80.2393,37.6377],[-80.221,37.6278],[-80.2234,37.6232],[-80.2403,37.607],[-80.2888,37.582],[-80.3124,37.5462],[-80.3303,37.5362],[-80.3148,37.5009],[-80.3206,37.4989],[-80.4257,37.4499],[-80.443,37.4381],[-80.4648,37.4261],[-80.4756,37.4229],[-80.4949,37.4351],[-80.5114,37.4817],[-80.6227,37.4333],[-80.7701,37.3724],[-80.7766,37.3837],[-80.7768,37.3841],[-80.7989,37.3958],[-80.8116,37.4075],[-80.8584,37.4282],[-80.8585,37.4283],[-80.6604,37.7146],[-80.6633,37.7317]]]}},{"type":"Feature","id":"54065","properties":{"fips":"54065","name":"Morgan","state":"WV"},"geometry":{"type":"Polygon","coordinates":[[[-78.3471,39.466],[-78.4686,39.5168],[-78.4369,39.539],[-78.432,39.5611],[-78.4502,39.5709],[-78.4544,39.5743],[-78.4585,39.5812],[-78.4572,39.5874],[-78.4303,39.6233],[-78.3552,39.6406],[-78.334,39.6358],[-78.313,39.631],[-78.283,39.6205],[-78.2711,39.6196],[-78.2243,39.6633],[-78.1911,39.6903],[-78.1828,39.6951],[-78.1766,39.696],[-78.1435,39.6904],[-78.1078,39.6821],[-78.0746,39.6667],[-78.036,39.6357],[-78.0234,39.6199],[-78.1389,39.5938],[-78.2288,39.3912],[-78.3471,39.466]]]}},{"type":"Feature","id":"54067","properties":{"fips":"54067","name":"Nicholas","state":"WV"},"geometry":{"type":"Polygon","coordinates":[[[-81.2316,38.2635],[-81.2314,38.2637],[-80.9114,38.4148],[-80.8174,38.4786],[-80.8812,38.507],[-80.7852,38.5576],[-80.6508,38.5266],[-80.6783,38.5035],[-80.6094,38.3586],[-80.4365,38.2673],[-80.712,38.0791],[-80.8822,38.1035],[-80.9835,38.2225],[-81.0705,38.2101],[-81.2316,38.2635]]]}},{"type":"Feature","id":"54069","properties":{"fips":"54069","name":"Ohio","state":"WV"},"geometry":{"type":"Polygon","coordinates":[[[-80.7055,40.153],[-80.7031,40.1572],[-80.6854,40.1876],[-80.5191,40.1597],[-80.519,40.0781],[-80.519,40.077],[-80.5191,40.0164],[-80.7321,40.0332],[-80.7315,40.0375],[-80.7309,40.0492],[-80.7331,40.0588],[-80.7265,40.0891],[-80.7055,40.153]]]}},{"type":"Feature","id":"54071","properties":{"fips":"54071","name":"Pendleton","state":"WV"},"geometry":{"type":"Polygon","coordinates":[[[-79.1343,38.8133],[-79.0573,38.7614],[-79.0926,38.7001],[-79.0923,38.6992],[-79.1355,38.6441],[-79.1355,38.6437],[-79.1364,38.6424],[-79.137,38.6407],[-79.1467,38.6258],[-79.147,38.6256],[-79.1745,38.5665],[-79.1749,38.5663],[-79.2079,38.5004],[-79.2079,38.5001],[-79.2097,38.4956],[-79.21,38.4943],[-79.21,38.4942],[-79.2258,38.4794],[-79.2316,38.474],[-79.2344,38.473],[-79.2401,38.4698],[-79.242,38.4643],[-79.2629,38.4446],[-79.2634,38.4438],[-79.2653,38.4418],[-79.2674,38.4383],[-79.2827,38.431],[-79.2803,38.4255],[-79.2905,38.4208],[-79.2918,38.4196],[-79.2957,38.4181],[-79.2978,38.4164],[-79.3123,38.4119],[-79.4766,38.4572],[-79.5215,38.5339],[-79.5369,38.5509],[-79.5555,38.5602],[-79.598,38.5728],[-79.6491,38.5915],[-79.6268,38.6642],[-79.5101,38.7807],[-79.5391,38.8414],[-79.4555,38.9299],[-79.3499,38.9575],[-79.1343,38.8133]]]}},{"type":"Feature","id":"54073","properties":{"fips":"54073","name":"Pleasants","state":"WV"},"geometry":{"type":"Polygon","coordinates":[[[-81.2395,39.2683],[-81.3713,39.3421],[-81.3569,39.3432],[-81.3476,39.3458],[-81.2954,39.3753],[-81.2707,39.3859],[-81.2491,39.39],[-81.2236,39.3861],[-81.2156,39.3886],[-81.1277,39.4649],[-81.0293,39.4674],[-81.0078,39.3509],[-81.2395,39.2683]]]}},{"type":"Feature","id":"54075","properties":{"fips":"54075","name":"Pocahontas","state":"WV"},"geometry":{"type":"Polygon","coordinates":[[[-80.2455,38.3885],[-80.1169,38.474],[-80.0292,38.4592],[-79.8632,38.5508],[-79.7818,38.7369],[-79.7392,38.6796],[-79.6268,38.6642],[-79.6491,38.5915],[-79.6691,38.511],[-79.6691,38.5109],[-79.6956,38.4778],[-79.699,38.4751],[-79.6882,38.4505],[-79.689,38.4495],[-79.6895,38.4425],[-79.6914,38.4396],[-79.7317,38.3741],[-79.8087,38.3094],[-79.8101,38.305],[-79.7889,38.2687],[-79.7901,38.2677],[-79.7946,38.2649],[-79.892,38.2034],[-79.8923,38.2024],[-79.9162,38.1844],[-79.9171,38.1837],[-79.9212,38.1804],[-79.921,38.18],[-79.9253,38.1505],[-79.9255,38.1502],[-79.9287,38.1449],[-79.9287,38.1444],[-79.9338,38.1355],[-79.9384,38.1306],[-79.931,38.1014],[-79.9339,38.0992],[-79.9598,38.0637],[-80.1692,38.0361],[-80.2647,38.0466],[-80.3633,38.1143],[-80.36,38.2258],[-80.3522,38.3453],[-80.2455,38.3885]]]}},{"type":"Feature","id":"54077","properties":{"fips":"54077","name":"Preston","state":"WV"},"geometry":{"type":"Polygon","coordinates":[[[-79.8955,39.2996],[-79.8947,39.4356],[-79.8997,39.4819],[-79.7893,39.6238],[-79.7638,39.7208],[-79.6106,39.7212],[-79.6082,39.7212],[-79.4767,39.7211],[-79.4789,39.5317],[-79.4824,39.5247],[-79.4826,39.5214],[-79.4877,39.2799],[-79.4867,39.2781],[-79.4862,39.265],[-79.4859,39.2649],[-79.4869,39.206],[-79.4872,39.1949],[-79.6873,39.2714],[-79.8097,39.2305],[-79.8955,39.2996]]]}},{"type":"Feature","id":"54079","properties":{"fips":"54079","name":"Putnam","state":"WV"},"geometry":{"type":"Polygon","coordinates":[[[-81.6963,38.6264],[-81.7505,38.591],[-81.7258,38.4666],[-81.9002,38.3986],[-81.9152,38.3256],[-81.9918,38.2691],[-82.0486,38.2901],[-82.0471,38.3744],[-82.0551,38.4745],[-82.0646,38.608],[-81.9558,38.6574],[-81.7728,38.6808],[-81.7477,38.6841],[-81.6963,38.6264]]]}},{"type":"Feature","id":"54081","properties":{"fips":"54081","name":"Raleigh","state":"WV"},"geometry":{"type":"Polygon","coordinates":[[[-81.4566,37.9873],[-81.4385,37.968],[-81.4143,37.9735],[-81.3808,37.9691],[-81.2966,37.944],[-81.2951,37.8893],[-81.0732,37.8759],[-81.091,37.8497],[-80.9451,37.8191],[-80.8823,37.6808],[-80.947,37.7154],[-81.0946,37.5887],[-81.1993,37.5745],[-81.2221,37.5104],[-81.3041,37.5466],[-81.4278,37.7494],[-81.5142,37.7912],[-81.5713,37.9281],[-81.4566,37.9873]]]}},{"type":"Feature","id":"54083","properties":{"fips":"54083","name":"Randolph","state":"WV"},"geometry":{"type":"Polygon","coordinates":[[[-79.8251,39.1158],[-79.7857,39.0374],[-79.5088,38.9752],[-79.3577,38.9645],[-79.3496,38.9587],[-79.3499,38.9575],[-79.4555,38.9299],[-79.5391,38.8414],[-79.5101,38.7807],[-79.6268,38.6642],[-79.7392,38.6796],[-79.7818,38.7369],[-79.8632,38.5508],[-80.0292,38.4592],[-80.1169,38.474],[-80.2455,38.3885],[-80.1839,38.5254],[-80.2801,38.6949],[-80.2368,38.7438],[-80.1261,38.7458],[-80.0851,38.9472],[-79.8961,38.9734],[-79.8251,39.1158]]]}},{"type":"Feature","id":"54085","properties":{"fips":"54085","name":"Ritchie","state":"WV"},"geometry":{"type":"Polygon","coordinates":[[[-81.298,39.1856],[-81.2395,39.2683],[-81.0078,39.3509],[-80.9321,39.3891],[-80.8887,39.2943],[-80.9138,39.2729],[-80.813,39.1094],[-81.0336,39.0096],[-81.1625,39.0306],[-81.2503,39.0351],[-81.3288,39.1526],[-81.298,39.1856]]]}},{"type":"Feature","id":"54087","properties":{"fips":"54087","name":"Roane","state":"WV"},"geometry":{"type":"Polygon","coordinates":[[[-81.5222,38.6127],[-81.5466,38.6724],[-81.5026,38.9179],[-81.4481,38.9416],[-81.3439,38.8956],[-81.2784,38.9149],[-81.1718,38.7398],[-81.1588,38.6445],[-81.0837,38.612],[-81.1308,38.5659],[-81.1941,38.5276],[-81.4654,38.5499],[-81.5222,38.6127]]]}},{"type":"Feature","id":"54089","properties":{"fips":"54089","name":"Summers","state":"WV"},"geometry":{"type":"Polygon","coordinates":[[[-80.9451,37.8191],[-80.8063,37.8689],[-80.6633,37.7317],[-80.6604,37.7146],[-80.8585,37.4283],[-80.8596,37.4296],[-80.8596,37.4296],[-81.0946,37.5887],[-80.947,37.7154],[-80.8823,37.6808],[-80.9451,37.8191]]]}},{"type":"Feature","id":"54091","properties":{"fips":"54091","name":"Taylor","state":"WV"},"geometry":{"type":"Polygon","coordinates":[[[-79.9389,39.4525],[-79.8947,39.4356],[-79.8955,39.2996],[-80.0234,39.2479],[-80.1664,39.2423],[-80.1973,39.3932],[-80.0868,39.3865],[-79.9389,39.4525]]]}},{"type":"Feature","id":"54093","properties":{"fips":"54093","name":"Tucker","state":"WV"},"geometry":{"type":"Polygon","coordinates":[[[-79.8097,39.2305],[-79.6873,39.2714],[-79.4872,39.1949],[-79.2893,39.1897],[-79.3555,39.0865],[-79.2982,39.0732],[-79.3577,38.9645],[-79.5088,38.9752],[-79.7857,39.0374],[-79.8251,39.1158],[-79.8097,39.2305]]]}},{"type":"Feature","id":"54095","properties":{"fips":"54095","name":"Tyler","state":"WV"},"geometry":{"type":"Polygon","coordinates":[[[-80.8887,39.2943],[-80.9321,39.3891],[-81.0078,39.3509],[-81.0293,39.4674],[-81.1277,39.4649],[-81.0636,39.5205],[-81.0387,39.5405],[-81.0201,39.5554],[-80.9438,39.6069],[-80.8522,39.602],[-80.7205,39.4812],[-80.6186,39.4504],[-80.8887,39.2943]]]}},{"type":"Feature","id":"54097","properties":{"fips":"54097","name":"Upshur","state":"WV"},"geometry":{"type":"Polygon","coordinates":[[[-80.3002,39.1039],[-80.2488,39.1008],[-80.2404,39.1131],[-80.2272,39.1128],[-80.1282,39.0378],[-80.0558,39.0372],[-80.0851,38.9472],[-80.1261,38.7458],[-80.2368,38.7438],[-80.2801,38.6949],[-80.3931,38.7276],[-80.387,38.8748],[-80.3175,38.9586],[-80.3002,39.1039]]]}},{"type":"Feature","id":"54099","properties":{"fips":"54099","name":"Wayne","state":"WV"},"geometry":{"type":"Polygon","coordinates":[[[-82.2648,38.2292],[-82.2833,38.1419],[-82.2039,38.0236],[-82.3064,37.9436],[-82.4002,37.8518],[-82.4177,37.8707],[-82.4747,37.9104],[-82.5004,37.9365],[-82.4974,37.9453],[-82.4973,37.9455],[-82.465,37.9769],[-82.4641,37.9824],[-82.4655,37.9848],[-82.4877,37.9983],[-82.5098,38.0012],[-82.5197,38.0085],[-82.5391,38.0391],[-82.5473,38.0611],[-82.6001,38.1174],[-82.6026,38.1183],[-82.6212,38.1232],[-82.6365,38.1379],[-82.6447,38.1655],[-82.6042,38.2473],[-82.595,38.2455],[-82.584,38.2464],[-82.5783,38.2548],[-82.5747,38.2639],[-82.5719,38.3158],[-82.593,38.3751],[-82.5954,38.3827],[-82.5954,38.3827],[-82.5971,38.4129],[-82.5963,38.4177],[-82.5937,38.4218],[-82.5607,38.4043],[-82.5202,38.4076],[-82.5067,38.4101],[-82.3439,38.3052],[-82.2979,38.3274],[-82.2648,38.2292]]]}},{"type":"Feature","id":"54101","properties":{"fips":"54101","name":"Webster","state":"WV"},"geometry":{"type":"Polygon","coordinates":[[[-80.4365,38.2673],[-80.6094,38.3586],[-80.6783,38.5035],[-80.6508,38.5266],[-80.5087,38.6456],[-80.4573,38.7392],[-80.4447,38.7267],[-80.4266,38.731],[-80.4047,38.7234],[-80.3931,38.7276],[-80.2801,38.6949],[-80.1839,38.5254],[-80.2455,38.3885],[-80.3522,38.3453],[-80.36,38.2258],[-80.4365,38.2673]]]}},{"type":"Feature","id":"54103","properties":{"fips":"54103","name":"Wetzel","state":"WV"},"geometry":{"type":"Polygon","coordinates":[[[-80.4941,39.4696],[-80.494,39.4611],[-80.5127,39.4586],[-80.5156,39.4377],[-80.5445,39.4291],[-80.6186,39.4504],[-80.7205,39.4812],[-80.8522,39.602],[-80.9438,39.6069],[-80.8922,39.6168],[-80.8804,39.6207],[-80.8319,39.7057],[-80.8298,39.7118],[-80.8286,39.7208],[-80.5193,39.7214],[-80.4214,39.7212],[-80.3958,39.6373],[-80.4982,39.5633],[-80.4941,39.4696]]]}},{"type":"Feature","id":"54105","properties":{"fips":"54105","name":"Wirt","state":"WV"},"geometry":{"type":"Polygon","coordinates":[[[-81.5026,38.9179],[-81.5814,39.0262],[-81.4249,39.1357],[-81.298,39.1856],[-81.3288,39.1526],[-81.2503,39.0351],[-81.1625,39.0306],[-81.2784,38.9149],[-81.3439,38.8956],[-81.4481,38.9416],[-81.5026,38.9179]]]}},{"type":"Feature","id":"54107","properties":{"fips":"54107","name":"Wood","state":"WV"},"geometry":{"type":"Polygon","coordinates":[[[-81.7473,39.0954],[-81.7497,39.1807],[-81.7499,39.1865],[-81.7401,39.1907],[-81.7216,39.2124],[-81.6957,39.2429],[-81.6058,39.2759],[-81.5423,39.3529],[-81.4677,39.4038],[-81.4561,39.4093],[-81.4465,39.4104],[-81.4356,39.4085],[-81.4127,39.3946],[-81.4067,39.3881],[-81.3938,39.3517],[-81.3846,39.3434],[-81.376,39.3417],[-81.3713,39.3421],[-81.2395,39.2683],[-81.298,39.1856],[-81.4249,39.1357],[-81.5814,39.0262],[-81.7473,39.0954]]]}},{"type":"Feature","id":"54109","properties":{"fips":"54109","name":"Wyoming","state":"WV"},"geometry":{"type":"Polygon","coordinates":[[[-81.5142,37.7912],[-81.4278,37.7494],[-81.3041,37.5466],[-81.2221,37.5104],[-81.3112,37.4245],[-81.4658,37.4847],[-81.6544,37.5233],[-81.7294,37.4946],[-81.8559,37.5489],[-81.8029,37.6605],[-81.7017,37.7014],[-81.7647,37.7521],[-81.6075,37.7887],[-81.5142,37.7912]]]}}]}